{"type":"FeatureCollection","crs":{"type":"name","properties":{"name":"urn:ogc:def:crs:OGC:1.3:CRS84"}},"features":[{"type":"Feature","properties":{"NOMBDEP":"AMAZONAS","COUNT":84,"FIRST_IDDP":"01","HECTARES":3930646.567},"geometry":{"type":"Polygon","coordinates":[[[-77.75893,-6.96451],[-77.84586,-6.9764],[-77.88034,-6.9625],[-77.92753,-6.98671],[-77.99951,-6.97053],[-78.01406,-6.8223],[-78.0582,-6.67615],[-78.1076,-6.64233],[-78.13603,-6.5263],[-78.19003,-6.45702],[-78.25515,-6.39478],[-78.33373,-6.35098],[-78.33539,-6.31868],[-78.43816,-6.16569],[-78.5188,-6.07148],[-78.58944,-6.07654],[-78.61227,-6.01818],[-78.66032,-5.95556],[-78.71202,-5.83044],[-78.6838,-5.70705],[-78.60482,-5.60721],[-78.55852,-5.49909],[-78.51518,-5.45435],[-78.5184,-5.39928],[-78.60449,-5.3099],[-78.68424,-5.26749],[-78.70911,-5.17963],[-78.70062,-5.10408],[-78.65771,-5.06742],[-78.61963,-5.00053],[-78.64582,-4.96227],[-78.60065,-4.77339],[-78.64466,-4.73645],[-78.63794,-4.65798],[-78.70596,-4.62387],[-78.66081,-4.58606],[-78.66112,-4.53008],[-78.63757,-4.50091],[-78.63408,-4.41324],[-78.65227,-4.33251],[-78.61824,-4.29422],[-78.58132,-4.1355],[-78.54079,-4.07388],[-78.56611,-3.9933],[-78.5245,-3.93726],[-78.48867,-3.93361],[-78.47653,-3.85869],[-78.41391,-3.79261],[-78.40248,-3.73539],[-78.42274,-3.69089],[-78.40082,-3.65134],[-78.38769,-3.55497],[-78.36493,-3.5297],[-78.35918,-3.46952],[-78.31874,-3.39507],[-78.24621,-3.40233],[-78.21479,-3.50859],[-78.14917,-3.4808],[-78.17121,-3.35083],[-77.95137,-3.09053],[-77.93251,-3.03528],[-77.89151,-3.00903],[-77.80862,-2.98613],[-77.77852,-3.18718],[-77.77648,-3.40913],[-77.76054,-3.4598],[-77.61694,-3.6343],[-77.61562,-3.70772],[-77.65182,-3.77901],[-77.5694,-3.87275],[-77.54177,-3.94333],[-77.53812,-4.02871],[-77.54966,-4.10989],[-77.58555,-4.25133],[-77.56539,-4.37246],[-77.58594,-4.47501],[-77.65546,-4.51854],[-77.67195,-4.62947],[-77.77188,-4.71756],[-77.79462,-4.76301],[-77.79357,-4.84996],[-77.76015,-4.90935],[-77.75929,-4.95178],[-77.82462,-5.03178],[-77.82228,-5.08179],[-77.77429,-5.09718],[-77.69598,-5.16366],[-77.73956,-5.2126],[-77.69308,-5.26769],[-77.68207,-5.3384],[-77.69596,-5.41105],[-77.74304,-5.40647],[-77.76845,-5.43805],[-77.76576,-5.53898],[-77.73689,-5.60514],[-77.77371,-5.68521],[-77.76393,-5.81971],[-77.67788,-5.85965],[-77.65189,-5.93533],[-77.66922,-5.98037],[-77.59346,-6.00935],[-77.53381,-6.06337],[-77.47862,-6.00089],[-77.43446,-6.06041],[-77.3955,-6.03938],[-77.34643,-6.11434],[-77.28153,-6.14172],[-77.22299,-6.1469],[-77.2,-6.23118],[-77.13273,-6.30242],[-77.17173,-6.38117],[-77.22146,-6.38113],[-77.26001,-6.32771],[-77.28666,-6.33102],[-77.27316,-6.40653],[-77.32636,-6.46803],[-77.33515,-6.52233],[-77.39387,-6.60269],[-77.43615,-6.60522],[-77.38173,-6.69759],[-77.54407,-6.677],[-77.61234,-6.61226],[-77.69336,-6.67853],[-77.74561,-6.66516],[-77.74671,-6.75184],[-77.76172,-6.80775],[-77.72332,-6.89346],[-77.75893,-6.96451]]]}},{"type":"Feature","properties":{"NOMBDEP":"ANCASH","COUNT":166,"FIRST_IDDP":"02","HECTARES":3596224.6},"geometry":{"type":"Polygon","coordinates":[[[-77.31749,-8.53015],[-77.28903,-8.5893],[-77.29485,-8.63293],[-77.2606,-8.64852],[-77.24629,-8.70235],[-77.16484,-8.8891],[-77.13163,-8.91562],[-77.1098,-8.97021],[-77.03719,-8.99929],[-76.9801,-9.06292],[-76.78858,-9.13624],[-76.73373,-9.20897],[-76.72574,-9.25663],[-76.75749,-9.3622],[-76.81437,-9.32601],[-76.84229,-9.26173],[-76.93524,-9.39855],[-76.95233,-9.4697],[-76.93801,-9.52658],[-76.99527,-9.60344],[-77.04849,-9.64746],[-76.98651,-9.74911],[-76.97039,-9.71149],[-76.90138,-9.7705],[-76.89521,-9.8156],[-76.81368,-9.96157],[-76.82562,-9.98929],[-76.80842,-10.08485],[-76.91546,-10.11991],[-76.90625,-10.27419],[-76.96545,-10.30538],[-77.00672,-10.28423],[-77.02471,-10.32753],[-77.07161,-10.3381],[-77.11099,-10.40334],[-77.17462,-10.4646],[-77.19099,-10.55213],[-77.25187,-10.54524],[-77.31063,-10.56769],[-77.39531,-10.66154],[-77.41543,-10.72998],[-77.49496,-10.7461],[-77.57717,-10.72857],[-77.58637,-10.64694],[-77.57665,-10.58375],[-77.64073,-10.59627],[-77.64426,-10.52741],[-77.73678,-10.56321],[-77.68392,-10.43139],[-77.59759,-10.38036],[-77.69239,-10.3209],[-77.75292,-10.32215],[-77.76021,-10.43022],[-77.79618,-10.48329],[-77.77244,-10.51248],[-77.77138,-10.57161],[-77.83299,-10.56748],[-77.88627,-10.61192],[-77.90816,-10.54429],[-77.96062,-10.49252],[-78.0106,-10.3747],[-78.05455,-10.34596],[-78.10226,-10.20015],[-78.16357,-10.14719],[-78.17534,-10.04585],[-78.24265,-9.87365],[-78.22603,-9.79548],[-78.27201,-9.75607],[-78.32182,-9.66175],[-78.36485,-9.62047],[-78.36799,-9.55531],[-78.39774,-9.47212],[-78.38011,-9.44549],[-78.42794,-9.41129],[-78.4254,-9.3413],[-78.47506,-9.33154],[-78.50898,-9.27881],[-78.48681,-9.20335],[-78.5083,-9.18038],[-78.57224,-9.17157],[-78.56127,-9.11615],[-78.62479,-9.07807],[-78.64492,-8.96923],[-78.59166,-8.946],[-78.58828,-8.85868],[-78.56534,-8.7926],[-78.51814,-8.75298],[-78.44823,-8.73693],[-78.35481,-8.67328],[-78.24613,-8.65836],[-78.19353,-8.60011],[-78.21688,-8.55692],[-78.17366,-8.50354],[-78.13947,-8.42783],[-78.1375,-8.36867],[-78.11595,-8.3101],[-78.01863,-8.22432],[-77.93321,-8.19701],[-77.8979,-8.07602],[-77.81044,-8.06773],[-77.71943,-8.07345],[-77.64711,-8.05028],[-77.63652,-8.10619],[-77.60569,-8.15481],[-77.55722,-8.19373],[-77.4589,-8.33566],[-77.4389,-8.41986],[-77.40034,-8.48197],[-77.31749,-8.53015]]]}},{"type":"Feature","properties":{"NOMBDEP":"APURIMAC","COUNT":80,"FIRST_IDDP":"03","HECTARES":2111415.17},"geometry":{"type":"Polygon","coordinates":[[[-72.47177,-14.6614],[-72.57725,-14.68662],[-72.64482,-14.66728],[-72.72471,-14.6759],[-72.7897,-14.65021],[-72.82858,-14.70263],[-72.84682,-14.75982],[-72.86564,-14.71068],[-72.95531,-14.68268],[-73.00941,-14.63739],[-73.10649,-14.69065],[-73.15324,-14.67435],[-73.19041,-14.70577],[-73.25611,-14.70901],[-73.27995,-14.73163],[-73.35081,-14.70403],[-73.3904,-14.71606],[-73.40455,-14.7655],[-73.48503,-14.84257],[-73.56528,-14.77583],[-73.5711,-14.68727],[-73.51006,-14.6501],[-73.53338,-14.58102],[-73.51165,-14.56366],[-73.53506,-14.49154],[-73.56899,-14.45933],[-73.51225,-14.26816],[-73.6111,-14.08872],[-73.61832,-14.02613],[-73.65647,-13.92995],[-73.67915,-13.91632],[-73.69778,-13.84742],[-73.74789,-13.76337],[-73.66953,-13.73485],[-73.74362,-13.65556],[-73.79192,-13.64096],[-73.81424,-13.50921],[-73.84696,-13.39743],[-73.80796,-13.3038],[-73.82282,-13.28505],[-73.79703,-13.19994],[-73.75644,-13.17071],[-73.72622,-13.26866],[-73.64195,-13.29948],[-73.57176,-13.34183],[-73.48091,-13.43137],[-73.40332,-13.44475],[-73.34716,-13.43483],[-73.2339,-13.47659],[-73.21193,-13.4191],[-73.10338,-13.44859],[-73.01513,-13.42667],[-72.97146,-13.39023],[-72.89409,-13.39013],[-72.88631,-13.41587],[-72.79341,-13.42612],[-72.74545,-13.4829],[-72.65677,-13.51335],[-72.63688,-13.54214],[-72.56304,-13.55142],[-72.4214,-13.60608],[-72.40175,-13.65951],[-72.29917,-13.70445],[-72.23093,-13.70528],[-72.13533,-13.78306],[-72.07783,-13.90673],[-72.05573,-13.93012],[-72.05167,-14.01239],[-72.0679,-14.07654],[-72.05667,-14.12881],[-72.0952,-14.17373],[-72.08149,-14.2023],[-72.18711,-14.31322],[-72.23952,-14.34847],[-72.24951,-14.40293],[-72.3172,-14.44069],[-72.35763,-14.43596],[-72.39308,-14.48185],[-72.42746,-14.47902],[-72.50291,-14.55166],[-72.4617,-14.60587],[-72.47177,-14.6614]]]}},{"type":"Feature","properties":{"NOMBDEP":"AREQUIPA","COUNT":109,"FIRST_IDDP":"04","HECTARES":6325588.935},"geometry":{"type":"Polygon","coordinates":[[[-75.07333,-15.44294],[-75.04965,-15.4345],[-75.00388,-15.33023],[-74.9682,-15.29942],[-74.93987,-15.20601],[-74.8706,-15.15123],[-74.81592,-15.1395],[-74.7623,-15.09805],[-74.7186,-15.13566],[-74.60597,-15.1485],[-74.55252,-15.13994],[-74.45142,-15.17597],[-74.39872,-15.18146],[-74.38788,-15.25178],[-74.40946,-15.30849],[-74.30972,-15.35894],[-74.32843,-15.39099],[-74.30012,-15.47839],[-74.19374,-15.49166],[-74.15126,-15.42875],[-74.09452,-15.392],[-74.03729,-15.45608],[-74.08493,-15.59154],[-74.06865,-15.62989],[-73.94596,-15.4904],[-73.86827,-15.42613],[-73.87486,-15.35507],[-73.86005,-15.32612],[-73.80799,-15.32427],[-73.75887,-15.38527],[-73.68436,-15.43748],[-73.65161,-15.41628],[-73.5574,-15.40861],[-73.4429,-15.35612],[-73.39217,-15.39874],[-73.29453,-15.39233],[-73.28492,-15.29494],[-73.24593,-15.28609],[-73.17455,-15.30661],[-73.11684,-15.22285],[-73.11075,-15.18611],[-73.04756,-15.13435],[-73.00424,-15.06413],[-72.98666,-14.9561],[-73.03146,-14.90005],[-73.00278,-14.81499],[-72.94273,-14.76541],[-72.84682,-14.75982],[-72.82858,-14.70263],[-72.7897,-14.65021],[-72.72471,-14.6759],[-72.64482,-14.66728],[-72.57725,-14.68662],[-72.47177,-14.6614],[-72.48613,-14.71254],[-72.47095,-14.77477],[-72.40648,-14.82709],[-72.31544,-14.83386],[-72.25229,-14.80366],[-72.1447,-14.77771],[-72.12869,-14.8306],[-72.04713,-14.87506],[-72.03426,-14.81199],[-72.04186,-14.69437],[-71.98791,-14.63295],[-71.94122,-14.68532],[-71.95863,-14.72802],[-71.924,-14.7898],[-71.89005,-14.79087],[-71.85209,-14.88809],[-71.79762,-14.89598],[-71.74596,-14.93987],[-71.76746,-15.01052],[-71.80296,-15.06744],[-71.66795,-15.0919],[-71.63602,-15.13914],[-71.5876,-15.1256],[-71.57063,-15.06121],[-71.51171,-15.07945],[-71.48587,-15.0591],[-71.50705,-14.97628],[-71.43082,-14.99808],[-71.37268,-15.07911],[-71.31563,-15.12022],[-71.26023,-15.07691],[-71.20684,-15.07189],[-71.14358,-15.12056],[-71.18039,-15.16262],[-71.16033,-15.20777],[-71.20184,-15.24545],[-71.1654,-15.28888],[-71.15115,-15.36394],[-71.17433,-15.42446],[-71.07175,-15.44927],[-71.03897,-15.40517],[-70.99396,-15.45484],[-71.01517,-15.48917],[-71.00818,-15.56397],[-70.91798,-15.6438],[-70.90013,-15.71215],[-70.93614,-15.78484],[-70.84328,-15.92326],[-70.8202,-15.97847],[-70.81257,-16.05396],[-70.85674,-16.05634],[-70.87506,-16.09458],[-70.85388,-16.24147],[-70.95702,-16.3084],[-70.98629,-16.30995],[-70.97524,-16.41216],[-70.95293,-16.46099],[-70.99245,-16.49587],[-71.07827,-16.45856],[-71.13952,-16.47497],[-71.24564,-16.46686],[-71.2448,-16.55023],[-71.27915,-16.61582],[-71.28909,-16.72646],[-71.32757,-16.75226],[-71.36943,-16.71968],[-71.4255,-16.74064],[-71.44431,-16.80467],[-71.44064,-16.86523],[-71.38461,-17.02111],[-71.33942,-17.02176],[-71.30225,-17.09385],[-71.44096,-17.25172],[-71.4908,-17.28501],[-71.69037,-17.21199],[-71.81222,-17.18431],[-71.85773,-17.15887],[-71.92265,-17.08751],[-72.03899,-17.01734],[-72.07616,-17.02116],[-72.21152,-16.90245],[-72.28828,-16.87525],[-72.29542,-16.82742],[-72.35928,-16.76415],[-72.44722,-16.70396],[-72.54319,-16.67806],[-72.70905,-16.65269],[-72.7719,-16.6288],[-72.91629,-16.52037],[-72.98685,-16.51744],[-73.05334,-16.4894],[-73.15916,-16.41993],[-73.225,-16.41277],[-73.30481,-16.37974],[-73.3142,-16.3387],[-73.45126,-16.28131],[-73.61993,-16.23009],[-73.69937,-16.2207],[-73.72788,-16.19525],[-73.86935,-16.13554],[-73.88939,-16.10935],[-74.03308,-16.01806],[-74.05445,-15.95452],[-74.16719,-15.90085],[-74.2416,-15.8787],[-74.2752,-15.84046],[-74.3279,-15.84872],[-74.3933,-15.82931],[-74.43929,-15.79456],[-74.46283,-15.72652],[-74.66128,-15.65284],[-74.74968,-15.60038],[-74.83075,-15.56719],[-74.90997,-15.51211],[-75.00684,-15.46004],[-75.07333,-15.44294]],[[-71.18558,-16.38499],[-71.10323,-16.4087],[-71.09644,-16.35077],[-71.19736,-16.35691],[-71.18558,-16.38499]]]}},{"type":"Feature","properties":{"NOMBDEP":"AYACUCHO","COUNT":111,"FIRST_IDDP":"05","HECTARES":4350381.783},"geometry":{"type":"Polygon","coordinates":[[[-74.34595,-12.17374],[-74.32187,-12.22978],[-74.27052,-12.23914],[-74.18762,-12.31438],[-74.12144,-12.3336],[-74.09836,-12.28491],[-73.98045,-12.24259],[-73.96586,-12.33645],[-73.88679,-12.4054],[-73.8268,-12.53116],[-73.80117,-12.61302],[-73.74829,-12.65766],[-73.72537,-12.64069],[-73.62567,-12.76499],[-73.59081,-12.84429],[-73.52368,-12.89948],[-73.52166,-12.99069],[-73.47797,-13.03226],[-73.44884,-13.10787],[-73.42191,-13.13239],[-73.34836,-13.29824],[-73.28735,-13.37194],[-73.21193,-13.4191],[-73.2339,-13.47659],[-73.34716,-13.43483],[-73.40332,-13.44475],[-73.48091,-13.43137],[-73.57176,-13.34183],[-73.64195,-13.29948],[-73.72622,-13.26866],[-73.75644,-13.17071],[-73.79703,-13.19994],[-73.82282,-13.28505],[-73.80796,-13.3038],[-73.84696,-13.39743],[-73.81424,-13.50921],[-73.79192,-13.64096],[-73.74362,-13.65556],[-73.66953,-13.73485],[-73.74789,-13.76337],[-73.69778,-13.84742],[-73.67915,-13.91632],[-73.65647,-13.92995],[-73.61832,-14.02613],[-73.6111,-14.08872],[-73.51225,-14.26816],[-73.56899,-14.45933],[-73.53506,-14.49154],[-73.51165,-14.56366],[-73.53338,-14.58102],[-73.51006,-14.6501],[-73.5711,-14.68727],[-73.56528,-14.77583],[-73.48503,-14.84257],[-73.40455,-14.7655],[-73.3904,-14.71606],[-73.35081,-14.70403],[-73.27995,-14.73163],[-73.25611,-14.70901],[-73.19041,-14.70577],[-73.15324,-14.67435],[-73.10649,-14.69065],[-73.00941,-14.63739],[-72.95531,-14.68268],[-72.86564,-14.71068],[-72.84682,-14.75982],[-72.94273,-14.76541],[-73.00278,-14.81499],[-73.03146,-14.90005],[-72.98666,-14.9561],[-73.00424,-15.06413],[-73.04756,-15.13435],[-73.11075,-15.18611],[-73.11684,-15.22285],[-73.17455,-15.30661],[-73.24593,-15.28609],[-73.28492,-15.29494],[-73.29453,-15.39233],[-73.39217,-15.39874],[-73.4429,-15.35612],[-73.5574,-15.40861],[-73.65161,-15.41628],[-73.68436,-15.43748],[-73.75887,-15.38527],[-73.80799,-15.32427],[-73.86005,-15.32612],[-73.87486,-15.35507],[-73.86827,-15.42613],[-73.94596,-15.4904],[-74.06865,-15.62989],[-74.08493,-15.59154],[-74.03729,-15.45608],[-74.09452,-15.392],[-74.15126,-15.42875],[-74.19374,-15.49166],[-74.30012,-15.47839],[-74.32843,-15.39099],[-74.30972,-15.35894],[-74.40946,-15.30849],[-74.38788,-15.25178],[-74.39872,-15.18146],[-74.45142,-15.17597],[-74.55252,-15.13994],[-74.60597,-15.1485],[-74.7186,-15.13566],[-74.7623,-15.09805],[-74.66427,-15.0447],[-74.66345,-14.90793],[-74.69384,-14.83816],[-74.74624,-14.84355],[-74.75601,-14.77113],[-74.8027,-14.75215],[-74.84574,-14.70798],[-74.85277,-14.61181],[-74.89542,-14.54508],[-74.95892,-14.60645],[-75.0599,-14.62262],[-75.0691,-14.52693],[-75.09814,-14.4851],[-75.10127,-14.4332],[-75.13805,-14.41466],[-75.09393,-14.31242],[-75.03998,-14.27788],[-75.09079,-14.21518],[-75.05905,-14.12962],[-75.02913,-14.07195],[-74.94236,-14.09469],[-74.84138,-14.0734],[-74.77029,-14.08979],[-74.78388,-14.01695],[-74.76795,-13.97855],[-74.78592,-13.92879],[-74.76036,-13.83149],[-74.77508,-13.8038],[-74.75439,-13.73397],[-74.78115,-13.64818],[-74.77139,-13.6065],[-74.79957,-13.54747],[-74.86218,-13.48179],[-74.9021,-13.46644],[-74.89772,-13.39531],[-74.86875,-13.3599],[-74.76386,-13.34139],[-74.69946,-13.36351],[-74.64465,-13.27414],[-74.57098,-13.18467],[-74.54447,-13.19939],[-74.45844,-13.19004],[-74.42043,-13.15954],[-74.40801,-13.06927],[-74.38623,-13.02931],[-74.34588,-13.02584],[-74.31035,-13.05961],[-74.27017,-13.02555],[-74.29655,-12.93501],[-74.32767,-12.92839],[-74.32963,-12.83615],[-74.2924,-12.82476],[-74.2892,-12.75801],[-74.34877,-12.71243],[-74.32753,-12.68127],[-74.34082,-12.63446],[-74.41512,-12.49066],[-74.42245,-12.44521],[-74.50354,-12.44981],[-74.58118,-12.33267],[-74.55212,-12.28734],[-74.38481,-12.26863],[-74.38886,-12.19267],[-74.34595,-12.17374]],[[-73.74017,-15.26598],[-73.73904,-15.30791],[-73.6849,-15.33422],[-73.6401,-15.29199],[-73.74017,-15.26598]]]}},{"type":"Feature","properties":{"NOMBDEP":"CAJAMARCA","COUNT":127,"FIRST_IDDP":"06","HECTARES":3304465.549},"geometry":{"type":"Polygon","coordinates":[[[-79.32259,-7.02568],[-79.29663,-6.99983],[-79.31101,-6.90134],[-79.26274,-6.85916],[-79.12085,-6.77697],[-79.14156,-6.70154],[-79.21379,-6.69563],[-79.22906,-6.67141],[-79.29642,-6.67567],[-79.36699,-6.54952],[-79.40328,-6.54073],[-79.43129,-6.47972],[-79.42289,-6.45188],[-79.45349,-6.39684],[-79.42266,-6.31043],[-79.35356,-6.30429],[-79.32179,-6.26306],[-79.25226,-6.22669],[-79.27253,-6.14673],[-79.22399,-6.05501],[-79.26434,-6.00246],[-79.41861,-5.9701],[-79.33407,-5.89363],[-79.38982,-5.79109],[-79.40069,-5.74951],[-79.37555,-5.60619],[-79.39832,-5.53702],[-79.2724,-5.51898],[-79.2977,-5.45813],[-79.32807,-5.31591],[-79.35905,-5.28863],[-79.34865,-5.23258],[-79.37841,-5.19052],[-79.29436,-5.11048],[-79.24509,-5.00136],[-79.21007,-4.96524],[-79.07354,-4.97105],[-79.01195,-5.01399],[-78.97389,-4.89702],[-78.8951,-4.89144],[-78.89169,-4.80801],[-78.91273,-4.791],[-78.88275,-4.71406],[-78.83922,-4.65604],[-78.80252,-4.63747],[-78.70596,-4.62387],[-78.63794,-4.65798],[-78.64466,-4.73645],[-78.60065,-4.77339],[-78.64582,-4.96227],[-78.61963,-5.00053],[-78.65771,-5.06742],[-78.70062,-5.10408],[-78.70911,-5.17963],[-78.68424,-5.26749],[-78.60449,-5.3099],[-78.5184,-5.39928],[-78.51518,-5.45435],[-78.55852,-5.49909],[-78.60482,-5.60721],[-78.6838,-5.70705],[-78.71202,-5.83044],[-78.66032,-5.95556],[-78.61227,-6.01818],[-78.58944,-6.07654],[-78.5188,-6.07148],[-78.43816,-6.16569],[-78.33539,-6.31868],[-78.33373,-6.35098],[-78.25515,-6.39478],[-78.19003,-6.45702],[-78.13603,-6.5263],[-78.1076,-6.64233],[-78.0582,-6.67615],[-78.01406,-6.8223],[-77.99951,-6.97053],[-77.89787,-7.16681],[-77.8809,-7.22139],[-77.83105,-7.31003],[-77.81344,-7.39254],[-77.77199,-7.41846],[-77.74137,-7.46669],[-77.84417,-7.51438],[-77.87044,-7.58533],[-77.99864,-7.67907],[-78.08122,-7.69617],[-78.11605,-7.65401],[-78.22465,-7.75933],[-78.27242,-7.75352],[-78.3028,-7.69646],[-78.33014,-7.69963],[-78.38282,-7.63011],[-78.35679,-7.57401],[-78.35998,-7.50039],[-78.41563,-7.48507],[-78.49139,-7.55487],[-78.62457,-7.54856],[-78.6496,-7.52902],[-78.62984,-7.4455],[-78.66247,-7.413],[-78.76012,-7.40198],[-78.84162,-7.43762],[-78.88669,-7.4841],[-78.89591,-7.53744],[-78.94434,-7.59842],[-78.96086,-7.65783],[-78.99215,-7.66095],[-79.04123,-7.59989],[-79.06543,-7.47271],[-79.15272,-7.43982],[-79.18818,-7.39541],[-79.25633,-7.38186],[-79.29312,-7.34726],[-79.34713,-7.33664],[-79.28263,-7.27506],[-79.26727,-7.19239],[-79.3053,-7.14715],[-79.32259,-7.02568]]]}},{"type":"Feature","properties":{"NOMBDEP":"CALLAO","COUNT":6,"FIRST_IDDP":"07","HECTARES":14140.954},"geometry":{"type":"Polygon","coordinates":[[[-77.1871,-11.82836],[-77.12605,-11.82079],[-77.0899,-11.90179],[-77.11755,-11.95697],[-77.08294,-12.03642],[-77.11153,-12.07949],[-77.15113,-12.06703],[-77.13274,-11.97649],[-77.15683,-11.8743],[-77.1871,-11.82836]]]}},{"type":"Feature","properties":{"NOMBDEP":"CUSCO","COUNT":108,"FIRST_IDDP":"08","HECTARES":7207614.24},"geometry":{"type":"Polygon","coordinates":[[[-72.47177,-14.6614],[-72.4617,-14.60587],[-72.50291,-14.55166],[-72.42746,-14.47902],[-72.39308,-14.48185],[-72.35763,-14.43596],[-72.3172,-14.44069],[-72.24951,-14.40293],[-72.23952,-14.34847],[-72.18711,-14.31322],[-72.08149,-14.2023],[-72.0952,-14.17373],[-72.05667,-14.12881],[-72.0679,-14.07654],[-72.05167,-14.01239],[-72.05573,-13.93012],[-72.07783,-13.90673],[-72.13533,-13.78306],[-72.23093,-13.70528],[-72.29917,-13.70445],[-72.40175,-13.65951],[-72.4214,-13.60608],[-72.56304,-13.55142],[-72.63688,-13.54214],[-72.65677,-13.51335],[-72.74545,-13.4829],[-72.79341,-13.42612],[-72.88631,-13.41587],[-72.89409,-13.39013],[-72.97146,-13.39023],[-73.01513,-13.42667],[-73.10338,-13.44859],[-73.21193,-13.4191],[-73.28735,-13.37194],[-73.34836,-13.29824],[-73.42191,-13.13239],[-73.44884,-13.10787],[-73.47797,-13.03226],[-73.52166,-12.99069],[-73.52368,-12.89948],[-73.59081,-12.84429],[-73.62567,-12.76499],[-73.72537,-12.64069],[-73.74829,-12.65766],[-73.80117,-12.61302],[-73.8268,-12.53116],[-73.88679,-12.4054],[-73.96586,-12.33645],[-73.98045,-12.24259],[-73.92384,-12.22475],[-73.84325,-12.23943],[-73.80189,-12.2203],[-73.73694,-12.26679],[-73.70781,-12.26791],[-73.63715,-12.37837],[-73.59047,-12.37694],[-73.57433,-12.27684],[-73.46965,-12.21997],[-73.44606,-12.16029],[-73.36189,-12.13596],[-73.40769,-12.06599],[-73.39788,-12.02094],[-73.43769,-11.98963],[-73.44113,-11.9442],[-73.49053,-11.87817],[-73.57751,-11.83648],[-73.57448,-11.73415],[-73.60827,-11.66016],[-73.55965,-11.59205],[-73.44973,-11.53194],[-73.47972,-11.47136],[-73.41975,-11.38394],[-73.33133,-11.31126],[-73.25745,-11.31271],[-73.2033,-11.28999],[-73.13737,-11.29377],[-73.02651,-11.26408],[-72.98966,-11.1988],[-72.96858,-11.26412],[-72.93913,-11.28208],[-72.95191,-11.33063],[-72.89702,-11.35793],[-72.79429,-11.38429],[-72.73824,-11.34743],[-72.70656,-11.38151],[-72.60999,-11.42824],[-72.53509,-11.43508],[-72.47987,-11.38742],[-72.37883,-11.33264],[-72.30771,-11.307],[-72.23926,-11.34506],[-72.24789,-11.38501],[-72.29255,-11.43327],[-72.31551,-11.59558],[-72.42874,-11.70897],[-72.37077,-11.78497],[-72.3913,-11.82635],[-72.33215,-11.85553],[-72.34751,-11.89127],[-72.33747,-11.96808],[-72.28455,-11.97643],[-72.2593,-12.0063],[-72.26893,-12.05438],[-72.17373,-12.05981],[-72.09445,-12.08519],[-72.08756,-12.14269],[-72.10551,-12.23806],[-72.03384,-12.26504],[-71.97303,-12.32054],[-71.97601,-12.39878],[-72.06149,-12.44045],[-72.07113,-12.51148],[-72.03146,-12.52477],[-71.9814,-12.58049],[-71.95638,-12.65487],[-71.9786,-12.68333],[-71.88162,-12.73044],[-71.81059,-12.74498],[-71.74694,-12.79611],[-71.69497,-12.73879],[-71.6003,-12.70006],[-71.55213,-12.7093],[-71.45105,-12.82497],[-71.41524,-12.89426],[-71.35494,-12.88398],[-71.30101,-12.9407],[-71.23875,-12.97193],[-71.17304,-12.98333],[-71.16818,-13.09409],[-71.12201,-13.23353],[-71.04095,-13.26875],[-70.97452,-13.16829],[-70.92139,-13.11083],[-70.84296,-13.06705],[-70.75841,-13.10804],[-70.65976,-13.08846],[-70.58754,-13.10313],[-70.54985,-13.15286],[-70.46425,-13.15969],[-70.38847,-13.19239],[-70.42041,-13.25857],[-70.39284,-13.31416],[-70.40007,-13.37174],[-70.44255,-13.39336],[-70.45262,-13.44792],[-70.53403,-13.52527],[-70.54172,-13.57449],[-70.61619,-13.60906],[-70.65391,-13.65594],[-70.71513,-13.66225],[-70.73475,-13.73902],[-70.69886,-13.80317],[-70.72136,-13.82934],[-70.76837,-13.81433],[-70.83127,-13.85893],[-70.83304,-13.9381],[-70.86181,-14.02623],[-70.79588,-14.07212],[-70.80893,-14.1242],[-70.86683,-14.16908],[-70.89935,-14.2293],[-70.88058,-14.27088],[-70.91297,-14.32758],[-70.96258,-14.36185],[-70.98582,-14.40673],[-70.9625,-14.44482],[-70.99673,-14.50569],[-71.00145,-14.57221],[-71.11368,-14.66673],[-71.05324,-14.75433],[-71.01309,-14.73969],[-70.97548,-14.76413],[-70.99384,-14.82916],[-70.98474,-14.94607],[-71.00405,-14.97188],[-70.97623,-15.17564],[-70.9625,-15.21564],[-70.98528,-15.24903],[-70.9523,-15.28984],[-71.01228,-15.34375],[-71.03897,-15.40517],[-71.07175,-15.44927],[-71.17433,-15.42446],[-71.15115,-15.36394],[-71.1654,-15.28888],[-71.20184,-15.24545],[-71.16033,-15.20777],[-71.18039,-15.16262],[-71.14358,-15.12056],[-71.20684,-15.07189],[-71.26023,-15.07691],[-71.31563,-15.12022],[-71.37268,-15.07911],[-71.43082,-14.99808],[-71.50705,-14.97628],[-71.48587,-15.0591],[-71.51171,-15.07945],[-71.57063,-15.06121],[-71.5876,-15.1256],[-71.63602,-15.13914],[-71.66795,-15.0919],[-71.80296,-15.06744],[-71.76746,-15.01052],[-71.74596,-14.93987],[-71.79762,-14.89598],[-71.85209,-14.88809],[-71.89005,-14.79087],[-71.924,-14.7898],[-71.95863,-14.72802],[-71.94122,-14.68532],[-71.98791,-14.63295],[-72.04186,-14.69437],[-72.03426,-14.81199],[-72.04713,-14.87506],[-72.12869,-14.8306],[-72.1447,-14.77771],[-72.25229,-14.80366],[-72.31544,-14.83386],[-72.40648,-14.82709],[-72.47095,-14.77477],[-72.48613,-14.71254],[-72.47177,-14.6614]],[[-71.24459,-14.48327],[-71.16986,-14.5237],[-71.15651,-14.5],[-71.24817,-14.43888],[-71.24459,-14.48327]]]}},{"type":"Feature","properties":{"NOMBDEP":"HUANCAVELICA","COUNT":94,"FIRST_IDDP":"09","HECTARES":2206503.876},"geometry":{"type":"Polygon","coordinates":[[[-75.05905,-14.12962],[-75.10884,-14.03288],[-75.16568,-14.07253],[-75.25853,-14.04317],[-75.23233,-14.00477],[-75.33323,-14.01598],[-75.43382,-13.9139],[-75.5455,-13.88948],[-75.56338,-13.84087],[-75.52488,-13.8179],[-75.54153,-13.78144],[-75.51591,-13.69639],[-75.48487,-13.65097],[-75.51401,-13.61709],[-75.47731,-13.52548],[-75.46578,-13.43216],[-75.50292,-13.36595],[-75.53892,-13.40501],[-75.58512,-13.40267],[-75.68928,-13.43967],[-75.71216,-13.41642],[-75.80599,-13.40143],[-75.79021,-13.34251],[-75.70648,-13.28829],[-75.70634,-13.18676],[-75.69377,-13.1475],[-75.71877,-13.10976],[-75.69496,-13.07479],[-75.62861,-13.05707],[-75.61439,-12.96493],[-75.63612,-12.91618],[-75.61309,-12.86698],[-75.53108,-12.82221],[-75.5075,-12.77715],[-75.57655,-12.71514],[-75.55182,-12.68143],[-75.57961,-12.64148],[-75.53874,-12.62169],[-75.49085,-12.64794],[-75.41785,-12.62897],[-75.36239,-12.5396],[-75.27836,-12.46783],[-75.21552,-12.46342],[-75.21525,-12.39484],[-75.14023,-12.3421],[-75.07163,-12.2352],[-75.04833,-12.17033],[-75.07461,-12.06015],[-75.04705,-12.01156],[-74.93037,-12.02286],[-74.83737,-12.07082],[-74.74861,-12.04142],[-74.7169,-12.05942],[-74.65911,-11.99578],[-74.62416,-11.98518],[-74.45554,-12.03358],[-74.41952,-12.09378],[-74.35238,-12.14776],[-74.34595,-12.17374],[-74.38886,-12.19267],[-74.38481,-12.26863],[-74.55212,-12.28734],[-74.58118,-12.33267],[-74.50354,-12.44981],[-74.42245,-12.44521],[-74.41512,-12.49066],[-74.34082,-12.63446],[-74.32753,-12.68127],[-74.34877,-12.71243],[-74.2892,-12.75801],[-74.2924,-12.82476],[-74.32963,-12.83615],[-74.32767,-12.92839],[-74.29655,-12.93501],[-74.27017,-13.02555],[-74.31035,-13.05961],[-74.34588,-13.02584],[-74.38623,-13.02931],[-74.40801,-13.06927],[-74.42043,-13.15954],[-74.45844,-13.19004],[-74.54447,-13.19939],[-74.57098,-13.18467],[-74.64465,-13.27414],[-74.69946,-13.36351],[-74.76386,-13.34139],[-74.86875,-13.3599],[-74.89772,-13.39531],[-74.9021,-13.46644],[-74.86218,-13.48179],[-74.79957,-13.54747],[-74.77139,-13.6065],[-74.78115,-13.64818],[-74.75439,-13.73397],[-74.77508,-13.8038],[-74.76036,-13.83149],[-74.78592,-13.92879],[-74.76795,-13.97855],[-74.78388,-14.01695],[-74.77029,-14.08979],[-74.84138,-14.0734],[-74.94236,-14.09469],[-75.02913,-14.07195],[-75.05905,-14.12962]]]}},{"type":"Feature","properties":{"NOMBDEP":"HUANUCO","COUNT":76,"FIRST_IDDP":"10","HECTARES":3720052.603},"geometry":{"type":"Polygon","coordinates":[[[-77.31749,-8.53015],[-77.26408,-8.46753],[-77.20421,-8.48569],[-77.13384,-8.44002],[-77.08888,-8.48282],[-77.09165,-8.51698],[-77.0498,-8.55372],[-76.9163,-8.57016],[-76.84727,-8.54648],[-76.83158,-8.51666],[-76.69727,-8.53241],[-76.62432,-8.51195],[-76.54269,-8.50971],[-76.46617,-8.56974],[-76.44395,-8.48879],[-76.4168,-8.44344],[-76.33347,-8.42947],[-76.32419,-8.52413],[-76.27846,-8.57746],[-76.26668,-8.65505],[-76.23015,-8.79629],[-76.16644,-8.75641],[-76.11593,-8.65757],[-76.13044,-8.46721],[-76.08718,-8.33691],[-75.98496,-8.32215],[-75.94598,-8.40087],[-75.96491,-8.45174],[-75.96631,-8.59203],[-75.97976,-8.636],[-75.94575,-8.71614],[-75.92165,-8.78081],[-75.9173,-8.87924],[-75.87435,-8.97025],[-75.87586,-9.02146],[-75.80646,-9.12149],[-75.79411,-9.18837],[-75.73176,-9.27227],[-75.67084,-9.39664],[-75.56245,-9.40017],[-75.49439,-9.37736],[-75.4521,-9.29672],[-75.32894,-9.29703],[-75.28272,-9.30983],[-75.26233,-9.27037],[-75.20971,-9.22994],[-75.2106,-9.15914],[-75.23758,-9.10677],[-75.18102,-9.081],[-75.15099,-9.03872],[-75.1433,-8.97219],[-75.09437,-8.9223],[-75.04556,-8.90422],[-74.97886,-8.95204],[-74.93416,-8.93022],[-74.94071,-8.85789],[-74.85056,-8.75689],[-74.84668,-8.66124],[-74.79753,-8.63171],[-74.61782,-8.54872],[-74.54713,-8.58457],[-74.52535,-8.74932],[-74.53218,-8.77613],[-74.60892,-8.82023],[-74.64431,-8.91878],[-74.65137,-9.04877],[-74.67809,-9.09404],[-74.64071,-9.11856],[-74.63956,-9.15968],[-74.58944,-9.30318],[-74.67431,-9.39447],[-74.6771,-9.42832],[-74.7277,-9.46997],[-74.75052,-9.52461],[-74.73517,-9.57271],[-74.80704,-9.68658],[-74.80443,-9.72982],[-74.84935,-9.7483],[-74.89767,-9.73711],[-74.9431,-9.7611],[-74.99944,-9.83845],[-75.05988,-9.81969],[-75.1084,-9.84625],[-75.16012,-9.83997],[-75.24075,-9.78584],[-75.30307,-9.78362],[-75.27582,-9.84976],[-75.28794,-9.87028],[-75.36936,-9.87083],[-75.39565,-9.91396],[-75.47573,-9.97396],[-75.54864,-9.98361],[-75.59033,-9.95247],[-75.60859,-10.02287],[-75.6749,-10.04708],[-75.70311,-10.13304],[-75.70397,-10.20669],[-75.7856,-10.25237],[-75.84013,-10.25827],[-75.8564,-10.30171],[-75.92441,-10.35603],[-75.92515,-10.40676],[-75.97581,-10.47934],[-76.05764,-10.46515],[-76.07883,-10.43401],[-76.13049,-10.42973],[-76.22304,-10.37488],[-76.27112,-10.3711],[-76.30931,-10.40562],[-76.33579,-10.28632],[-76.4728,-10.33777],[-76.49094,-10.3789],[-76.6472,-10.41514],[-76.69682,-10.44249],[-76.72505,-10.48571],[-76.77004,-10.4648],[-76.80833,-10.39296],[-76.85639,-10.37727],[-76.90625,-10.27419],[-76.91546,-10.11991],[-76.80842,-10.08485],[-76.82562,-9.98929],[-76.81368,-9.96157],[-76.89521,-9.8156],[-76.90138,-9.7705],[-76.97039,-9.71149],[-76.98651,-9.74911],[-77.04849,-9.64746],[-76.99527,-9.60344],[-76.93801,-9.52658],[-76.95233,-9.4697],[-76.93524,-9.39855],[-76.84229,-9.26173],[-76.81437,-9.32601],[-76.75749,-9.3622],[-76.72574,-9.25663],[-76.73373,-9.20897],[-76.78858,-9.13624],[-76.9801,-9.06292],[-77.03719,-8.99929],[-77.1098,-8.97021],[-77.13163,-8.91562],[-77.16484,-8.8891],[-77.24629,-8.70235],[-77.2606,-8.64852],[-77.29485,-8.63293],[-77.28903,-8.5893],[-77.31749,-8.53015]]]}},{"type":"Feature","properties":{"NOMBDEP":"ICA","COUNT":43,"FIRST_IDDP":"11","HECTARES":2108076.66},"geometry":{"type":"Polygon","coordinates":[[[-74.7623,-15.09805],[-74.81592,-15.1395],[-74.8706,-15.15123],[-74.93987,-15.20601],[-74.9682,-15.29942],[-75.00388,-15.33023],[-75.04965,-15.4345],[-75.07333,-15.44294],[-75.08257,-15.42369],[-75.18589,-15.36724],[-75.16882,-15.30739],[-75.23062,-15.2772],[-75.21662,-15.23142],[-75.27468,-15.16832],[-75.36865,-15.14079],[-75.44269,-15.00059],[-75.5,-14.96697],[-75.50245,-14.91872],[-75.57452,-14.8678],[-75.67994,-14.81782],[-75.78436,-14.74829],[-75.85557,-14.71628],[-75.91646,-14.65918],[-75.93205,-14.56828],[-75.9742,-14.52525],[-75.97228,-14.4705],[-76.03924,-14.42431],[-76.0662,-14.38694],[-76.13186,-14.35426],[-76.10995,-14.29269],[-76.14357,-14.22762],[-76.23053,-14.14912],[-76.2902,-14.16151],[-76.26645,-14.01469],[-76.28252,-13.91805],[-76.33001,-13.92503],[-76.39633,-13.9089],[-76.37129,-13.80888],[-76.29622,-13.79347],[-76.30077,-13.83772],[-76.26096,-13.8656],[-76.19766,-13.64088],[-76.18744,-13.56582],[-76.19147,-13.42393],[-76.24479,-13.32351],[-76.20732,-13.3061],[-76.15597,-13.19373],[-76.01194,-13.0855],[-75.93768,-12.99132],[-75.80206,-13.06043],[-75.76216,-13.01889],[-75.72546,-13.03812],[-75.67036,-13.02261],[-75.61439,-12.96493],[-75.62861,-13.05707],[-75.69496,-13.07479],[-75.71877,-13.10976],[-75.69377,-13.1475],[-75.70634,-13.18676],[-75.70648,-13.28829],[-75.79021,-13.34251],[-75.80599,-13.40143],[-75.71216,-13.41642],[-75.68928,-13.43967],[-75.58512,-13.40267],[-75.53892,-13.40501],[-75.50292,-13.36595],[-75.46578,-13.43216],[-75.47731,-13.52548],[-75.51401,-13.61709],[-75.48487,-13.65097],[-75.51591,-13.69639],[-75.54153,-13.78144],[-75.52488,-13.8179],[-75.56338,-13.84087],[-75.5455,-13.88948],[-75.43382,-13.9139],[-75.33323,-14.01598],[-75.23233,-14.00477],[-75.25853,-14.04317],[-75.16568,-14.07253],[-75.10884,-14.03288],[-75.05905,-14.12962],[-75.09079,-14.21518],[-75.03998,-14.27788],[-75.09393,-14.31242],[-75.13805,-14.41466],[-75.10127,-14.4332],[-75.09814,-14.4851],[-75.0691,-14.52693],[-75.0599,-14.62262],[-74.95892,-14.60645],[-74.89542,-14.54508],[-74.85277,-14.61181],[-74.84574,-14.70798],[-74.8027,-14.75215],[-74.75601,-14.77113],[-74.74624,-14.84355],[-74.69384,-14.83816],[-74.66345,-14.90793],[-74.66427,-15.0447],[-74.7623,-15.09805]]]}},{"type":"Feature","properties":{"NOMBDEP":"JUNIN","COUNT":123,"FIRST_IDDP":"12","HECTARES":4399729.222},"geometry":{"type":"Polygon","coordinates":[[[-74.573,-10.9126],[-74.50838,-10.9503],[-74.50008,-10.996],[-74.44541,-11.00485],[-74.37365,-11.05652],[-74.25644,-11.01822],[-74.20147,-11.01966],[-74.09178,-10.98681],[-74.0055,-10.99319],[-73.97874,-11.07003],[-73.97827,-11.12063],[-73.8613,-11.14553],[-73.86657,-11.03735],[-73.85411,-10.95491],[-73.82341,-10.92107],[-73.81422,-10.7999],[-73.7572,-10.7359],[-73.69619,-10.77303],[-73.6104,-10.84657],[-73.56026,-10.86061],[-73.57149,-10.95809],[-73.54258,-11.04742],[-73.4826,-11.06524],[-73.4501,-11.22475],[-73.46011,-11.30271],[-73.48409,-11.31934],[-73.41975,-11.38394],[-73.47972,-11.47136],[-73.44973,-11.53194],[-73.55965,-11.59205],[-73.60827,-11.66016],[-73.57448,-11.73415],[-73.57751,-11.83648],[-73.49053,-11.87817],[-73.44113,-11.9442],[-73.43769,-11.98963],[-73.39788,-12.02094],[-73.40769,-12.06599],[-73.36189,-12.13596],[-73.44606,-12.16029],[-73.46965,-12.21997],[-73.57433,-12.27684],[-73.59047,-12.37694],[-73.63715,-12.37837],[-73.70781,-12.26791],[-73.73694,-12.26679],[-73.80189,-12.2203],[-73.84325,-12.23943],[-73.92384,-12.22475],[-73.98045,-12.24259],[-74.09836,-12.28491],[-74.12144,-12.3336],[-74.18762,-12.31438],[-74.27052,-12.23914],[-74.32187,-12.22978],[-74.34595,-12.17374],[-74.35238,-12.14776],[-74.41952,-12.09378],[-74.45554,-12.03358],[-74.62416,-11.98518],[-74.65911,-11.99578],[-74.7169,-12.05942],[-74.74861,-12.04142],[-74.83737,-12.07082],[-74.93037,-12.02286],[-75.04705,-12.01156],[-75.07461,-12.06015],[-75.04833,-12.17033],[-75.07163,-12.2352],[-75.14023,-12.3421],[-75.21525,-12.39484],[-75.21552,-12.46342],[-75.27836,-12.46783],[-75.36239,-12.5396],[-75.41785,-12.62897],[-75.49085,-12.64794],[-75.53874,-12.62169],[-75.57961,-12.64148],[-75.57184,-12.56407],[-75.5362,-12.51728],[-75.55741,-12.45659],[-75.5641,-12.33629],[-75.66412,-12.19405],[-75.63776,-12.11418],[-75.6943,-12.04269],[-75.76566,-12.05963],[-75.82407,-12.01569],[-75.92599,-11.98429],[-76.01425,-11.98433],[-76.05259,-11.94824],[-76.05131,-11.89224],[-76.13695,-11.78096],[-76.20233,-11.72805],[-76.20488,-11.65953],[-76.18771,-11.59279],[-76.22371,-11.56273],[-76.28679,-11.59123],[-76.37166,-11.50521],[-76.37946,-11.44371],[-76.43175,-11.34556],[-76.4777,-11.29353],[-76.49208,-11.18931],[-76.5184,-11.11608],[-76.49121,-11.08944],[-76.39722,-11.07576],[-76.31807,-11.09164],[-76.3079,-11.13266],[-76.26294,-11.1496],[-76.24117,-11.06112],[-76.27886,-10.92345],[-76.25985,-10.92143],[-76.24802,-10.93318],[-76.24817,-10.93864],[-76.23683,-10.95785],[-76.17633,-11.04421],[-76.11439,-11.1095],[-76.02966,-11.0872],[-76.01191,-11.04602],[-76.07102,-10.97603],[-76.12293,-10.96264],[-76.09134,-10.90656],[-76.04448,-10.87952],[-75.99267,-10.82098],[-75.92275,-10.88315],[-75.85826,-10.86786],[-75.83838,-10.8863],[-75.78599,-10.82456],[-75.73237,-10.80919],[-75.69342,-10.8342],[-75.58967,-10.8109],[-75.57382,-10.74699],[-75.49025,-10.75683],[-75.45953,-10.78595],[-75.48076,-10.84978],[-75.46522,-10.90113],[-75.40638,-10.85613],[-75.3173,-10.86357],[-75.26236,-10.82529],[-75.24405,-10.76695],[-75.19102,-10.71571],[-75.1198,-10.73022],[-75.07432,-10.66581],[-75.01666,-10.67713],[-74.97926,-10.74689],[-74.95648,-10.73279],[-74.89331,-10.76913],[-74.83131,-10.7805],[-74.7918,-10.83113],[-74.76036,-10.82511],[-74.70795,-10.85813],[-74.6493,-10.86707],[-74.6141,-10.90463],[-74.573,-10.9126]]]}},{"type":"Feature","properties":{"NOMBDEP":"LA LIBERTAD","COUNT":83,"FIRST_IDDP":"13","HECTARES":2529596.876},"geometry":{"type":"Polygon","coordinates":[[[-78.64492,-8.96923],[-78.65166,-8.91436],[-78.76116,-8.77396],[-78.73738,-8.71208],[-78.74383,-8.63383],[-78.77801,-8.56941],[-78.93488,-8.43632],[-78.89637,-8.37893],[-78.95755,-8.29352],[-78.98609,-8.21236],[-79.11557,-8.09666],[-79.1192,-8.07249],[-79.30729,-7.92597],[-79.37575,-7.8421],[-79.39243,-7.78781],[-79.46571,-7.71193],[-79.43529,-7.69336],[-79.44909,-7.64708],[-79.54088,-7.52126],[-79.58848,-7.4141],[-79.56954,-7.38999],[-79.6098,-7.26659],[-79.69062,-7.17713],[-79.49639,-6.97171],[-79.45501,-6.94631],[-79.40076,-6.95693],[-79.32259,-7.02568],[-79.3053,-7.14715],[-79.26727,-7.19239],[-79.28263,-7.27506],[-79.34713,-7.33664],[-79.29312,-7.34726],[-79.25633,-7.38186],[-79.18818,-7.39541],[-79.15272,-7.43982],[-79.06543,-7.47271],[-79.04123,-7.59989],[-78.99215,-7.66095],[-78.96086,-7.65783],[-78.94434,-7.59842],[-78.89591,-7.53744],[-78.88669,-7.4841],[-78.84162,-7.43762],[-78.76012,-7.40198],[-78.66247,-7.413],[-78.62984,-7.4455],[-78.6496,-7.52902],[-78.62457,-7.54856],[-78.49139,-7.55487],[-78.41563,-7.48507],[-78.35998,-7.50039],[-78.35679,-7.57401],[-78.38282,-7.63011],[-78.33014,-7.69963],[-78.3028,-7.69646],[-78.27242,-7.75352],[-78.22465,-7.75933],[-78.11605,-7.65401],[-78.08122,-7.69617],[-77.99864,-7.67907],[-77.87044,-7.58533],[-77.84417,-7.51438],[-77.74137,-7.46669],[-77.77199,-7.41846],[-77.81344,-7.39254],[-77.83105,-7.31003],[-77.8809,-7.22139],[-77.89787,-7.16681],[-77.99951,-6.97053],[-77.92753,-6.98671],[-77.88034,-6.9625],[-77.84586,-6.9764],[-77.75893,-6.96451],[-77.71338,-7.10789],[-77.64353,-7.149],[-77.60553,-7.21916],[-77.64675,-7.24074],[-77.62865,-7.32002],[-77.63571,-7.35745],[-77.61027,-7.43486],[-77.52692,-7.50484],[-77.5367,-7.58228],[-77.48453,-7.69971],[-77.52778,-7.75758],[-77.47983,-7.80329],[-77.44286,-7.81364],[-77.40678,-7.90249],[-77.37691,-7.90882],[-77.40713,-7.99199],[-77.38547,-8.05539],[-77.29226,-8.06009],[-77.23829,-8.01332],[-77.15054,-8.03204],[-77.11832,-8.02524],[-77.01956,-8.05269],[-76.98672,-8.11123],[-76.907,-8.17074],[-76.9256,-8.2185],[-76.90124,-8.28347],[-76.91375,-8.32609],[-76.97648,-8.39594],[-77.08548,-8.40622],[-77.13384,-8.44002],[-77.20421,-8.48569],[-77.26408,-8.46753],[-77.31749,-8.53015],[-77.40034,-8.48197],[-77.4389,-8.41986],[-77.4589,-8.33566],[-77.55722,-8.19373],[-77.60569,-8.15481],[-77.63652,-8.10619],[-77.64711,-8.05028],[-77.71943,-8.07345],[-77.81044,-8.06773],[-77.8979,-8.07602],[-77.93321,-8.19701],[-78.01863,-8.22432],[-78.11595,-8.3101],[-78.1375,-8.36867],[-78.13947,-8.42783],[-78.17366,-8.50354],[-78.21688,-8.55692],[-78.19353,-8.60011],[-78.24613,-8.65836],[-78.35481,-8.67328],[-78.44823,-8.73693],[-78.51814,-8.75298],[-78.56534,-8.7926],[-78.58828,-8.85868],[-78.59166,-8.946],[-78.64492,-8.96923]]]}},{"type":"Feature","properties":{"NOMBDEP":"LAMBAYEQUE","COUNT":38,"FIRST_IDDP":"14","HECTARES":1434230.801},"geometry":{"type":"Polygon","coordinates":[[[-80.62713,-6.37208],[-80.37622,-6.00697],[-80.32741,-5.94744],[-80.19891,-5.893],[-80.13086,-5.88867],[-79.99483,-5.75195],[-79.96904,-5.58221],[-79.94587,-5.515],[-79.90305,-5.49145],[-79.85399,-5.53182],[-79.86442,-5.56342],[-79.83294,-5.64549],[-79.78693,-5.64659],[-79.71728,-5.73935],[-79.73733,-5.83765],[-79.68271,-5.84645],[-79.63143,-5.82903],[-79.62642,-5.88745],[-79.60045,-5.93957],[-79.49894,-5.91519],[-79.41861,-5.9701],[-79.26434,-6.00246],[-79.22399,-6.05501],[-79.27253,-6.14673],[-79.25226,-6.22669],[-79.32179,-6.26306],[-79.35356,-6.30429],[-79.42266,-6.31043],[-79.45349,-6.39684],[-79.42289,-6.45188],[-79.43129,-6.47972],[-79.40328,-6.54073],[-79.36699,-6.54952],[-79.29642,-6.67567],[-79.22906,-6.67141],[-79.21379,-6.69563],[-79.14156,-6.70154],[-79.12085,-6.77697],[-79.26274,-6.85916],[-79.31101,-6.90134],[-79.29663,-6.99983],[-79.32259,-7.02568],[-79.40076,-6.95693],[-79.45501,-6.94631],[-79.49639,-6.97171],[-79.69062,-7.17713],[-79.68347,-7.1249],[-79.73984,-7.05754],[-79.93185,-6.87331],[-79.93971,-6.82703],[-79.98603,-6.74705],[-80.07489,-6.67552],[-80.17732,-6.60604],[-80.28864,-6.54308],[-80.62713,-6.37208]]]}},{"type":"Feature","properties":{"NOMBDEP":"LIMA","COUNT":171,"FIRST_IDDP":"15","HECTARES":3498999.431},"geometry":{"type":"Polygon","coordinates":[[[-76.90625,-10.27419],[-76.85639,-10.37727],[-76.80833,-10.39296],[-76.77004,-10.4648],[-76.72505,-10.48571],[-76.70179,-10.59354],[-76.65566,-10.64678],[-76.65938,-10.68825],[-76.63349,-10.78453],[-76.58058,-10.86691],[-76.56508,-10.96618],[-76.58016,-11.01084],[-76.5313,-11.03606],[-76.49121,-11.08944],[-76.5184,-11.11608],[-76.49208,-11.18931],[-76.4777,-11.29353],[-76.43175,-11.34556],[-76.37946,-11.44371],[-76.37166,-11.50521],[-76.28679,-11.59123],[-76.22371,-11.56273],[-76.18771,-11.59279],[-76.20488,-11.65953],[-76.20233,-11.72805],[-76.13695,-11.78096],[-76.05131,-11.89224],[-76.05259,-11.94824],[-76.01425,-11.98433],[-75.92599,-11.98429],[-75.82407,-12.01569],[-75.76566,-12.05963],[-75.6943,-12.04269],[-75.63776,-12.11418],[-75.66412,-12.19405],[-75.5641,-12.33629],[-75.55741,-12.45659],[-75.5362,-12.51728],[-75.57184,-12.56407],[-75.57961,-12.64148],[-75.55182,-12.68143],[-75.57655,-12.71514],[-75.5075,-12.77715],[-75.53108,-12.82221],[-75.61309,-12.86698],[-75.63612,-12.91618],[-75.61439,-12.96493],[-75.67036,-13.02261],[-75.72546,-13.03812],[-75.76216,-13.01889],[-75.80206,-13.06043],[-75.93768,-12.99132],[-76.01194,-13.0855],[-76.15597,-13.19373],[-76.20732,-13.3061],[-76.24479,-13.32351],[-76.43421,-13.09033],[-76.48978,-13.03185],[-76.51381,-12.95209],[-76.50579,-12.92581],[-76.52986,-12.83967],[-76.63568,-12.74334],[-76.67243,-12.62778],[-76.74676,-12.53912],[-76.79931,-12.50908],[-76.77504,-12.43787],[-76.77736,-12.39406],[-76.83603,-12.31741],[-76.93547,-12.25022],[-77.03771,-12.20408],[-77.03103,-12.13403],[-77.11153,-12.07949],[-77.08294,-12.03642],[-77.11755,-11.95697],[-77.0899,-11.90179],[-77.12605,-11.82079],[-77.1871,-11.82836],[-77.16817,-11.73911],[-77.21604,-11.63897],[-77.28003,-11.58745],[-77.30475,-11.51223],[-77.37217,-11.45259],[-77.49814,-11.37715],[-77.64292,-11.30448],[-77.64165,-11.21451],[-77.59235,-11.18208],[-77.63342,-11.05451],[-77.66175,-11.01265],[-77.65783,-10.94651],[-77.75018,-10.81774],[-77.74404,-10.79454],[-77.81066,-10.69989],[-77.88627,-10.61192],[-77.83299,-10.56748],[-77.77138,-10.57161],[-77.77244,-10.51248],[-77.79618,-10.48329],[-77.76021,-10.43022],[-77.75292,-10.32215],[-77.69239,-10.3209],[-77.59759,-10.38036],[-77.68392,-10.43139],[-77.73678,-10.56321],[-77.64426,-10.52741],[-77.64073,-10.59627],[-77.57665,-10.58375],[-77.58637,-10.64694],[-77.57717,-10.72857],[-77.49496,-10.7461],[-77.41543,-10.72998],[-77.39531,-10.66154],[-77.31063,-10.56769],[-77.25187,-10.54524],[-77.19099,-10.55213],[-77.17462,-10.4646],[-77.11099,-10.40334],[-77.07161,-10.3381],[-77.02471,-10.32753],[-77.00672,-10.28423],[-76.96545,-10.30538],[-76.90625,-10.27419]]]}},{"type":"Feature","properties":{"NOMBDEP":"LORETO","COUNT":51,"FIRST_IDDP":"16","HECTARES":37511598.865},"geometry":{"type":"Polygon","coordinates":[[[-73.98303,-7.53436],[-74.0338,-7.48486],[-74.03997,-7.44815],[-74.13839,-7.39635],[-74.18086,-7.35875],[-74.25902,-7.34405],[-74.31623,-7.35127],[-74.46265,-7.29894],[-74.50177,-7.26608],[-74.53573,-7.29443],[-74.57952,-7.40993],[-74.61607,-7.43504],[-74.6429,-7.50009],[-74.64314,-7.56229],[-74.57082,-7.66849],[-74.58403,-7.69849],[-74.55789,-7.74848],[-74.51572,-7.77717],[-74.56975,-7.81598],[-74.62798,-7.93983],[-74.72794,-7.98101],[-74.77126,-8.03606],[-74.89644,-8.08127],[-74.98226,-7.96899],[-75.03335,-7.95005],[-75.14249,-7.97864],[-75.18434,-8.0166],[-75.21457,-8.12714],[-75.24388,-8.15552],[-75.2878,-8.12551],[-75.37615,-8.13878],[-75.4301,-8.1666],[-75.47146,-8.25207],[-75.50288,-8.28941],[-75.50406,-8.34884],[-75.43532,-8.39311],[-75.44079,-8.43683],[-75.54662,-8.4665],[-75.59906,-8.41198],[-75.64813,-8.40975],[-75.70701,-8.43932],[-75.71647,-8.48733],[-75.77868,-8.49385],[-75.77964,-8.54742],[-75.83339,-8.65229],[-75.89185,-8.66157],[-75.94575,-8.71614],[-75.97976,-8.636],[-75.96631,-8.59203],[-75.96491,-8.45174],[-75.94598,-8.40087],[-75.98496,-8.32215],[-75.93489,-8.31155],[-75.91336,-8.25439],[-75.94116,-8.18618],[-75.94959,-8.09923],[-75.91701,-8.07178],[-75.84493,-8.05964],[-75.82949,-7.9735],[-75.85939,-7.92117],[-75.96698,-7.96036],[-76.0438,-7.79234],[-76.10159,-7.72266],[-76.09137,-7.56036],[-76.16615,-7.49431],[-76.21455,-7.40452],[-76.19604,-7.33353],[-76.21311,-7.31014],[-76.16666,-7.2676],[-76.14353,-7.20396],[-76.05994,-7.1613],[-76.01072,-7.07838],[-76.01079,-6.99654],[-76.05146,-6.9443],[-76.01053,-6.89361],[-76.05104,-6.81092],[-75.96365,-6.78842],[-75.84388,-6.79726],[-75.76843,-6.85382],[-75.6977,-6.8686],[-75.6681,-6.82642],[-75.63344,-6.84306],[-75.5118,-6.78557],[-75.50123,-6.76705],[-75.50023,-6.64032],[-75.5096,-6.49214],[-75.55009,-6.34771],[-75.49031,-6.26704],[-75.48719,-6.20342],[-75.52555,-6.16513],[-75.53279,-6.0956],[-75.57111,-6.00399],[-75.61389,-6.02324],[-75.62896,-6.08212],[-75.68037,-6.09563],[-75.71502,-6.13827],[-75.81483,-6.1009],[-75.83445,-6.1391],[-75.9308,-6.13665],[-75.96544,-6.0952],[-76.0321,-6.09966],[-76.12721,-6.17671],[-76.22363,-6.16603],[-76.27324,-6.10439],[-76.3183,-6.08609],[-76.37279,-5.97376],[-76.41227,-5.95066],[-76.54845,-6.02245],[-76.64001,-6.0026],[-76.7477,-6.00364],[-76.74673,-5.95403],[-76.81805,-5.86214],[-76.83545,-5.74556],[-76.88822,-5.74841],[-76.96135,-5.70608],[-76.99561,-5.66712],[-77.04173,-5.67471],[-77.23194,-5.59546],[-77.33832,-5.60347],[-77.37007,-5.56956],[-77.40873,-5.58916],[-77.46194,-5.58414],[-77.5174,-5.46675],[-77.55812,-5.42558],[-77.58167,-5.46118],[-77.67036,-5.40964],[-77.69596,-5.41105],[-77.68207,-5.3384],[-77.69308,-5.26769],[-77.73956,-5.2126],[-77.69598,-5.16366],[-77.77429,-5.09718],[-77.82228,-5.08179],[-77.82462,-5.03178],[-77.75929,-4.95178],[-77.76015,-4.90935],[-77.79357,-4.84996],[-77.79462,-4.76301],[-77.77188,-4.71756],[-77.67195,-4.62947],[-77.65546,-4.51854],[-77.58594,-4.47501],[-77.56539,-4.37246],[-77.58555,-4.25133],[-77.54966,-4.10989],[-77.53812,-4.02871],[-77.54177,-3.94333],[-77.5694,-3.87275],[-77.65182,-3.77901],[-77.61562,-3.70772],[-77.61694,-3.6343],[-77.76054,-3.4598],[-77.77648,-3.40913],[-77.77852,-3.18718],[-77.80862,-2.98613],[-77.15698,-2.76785],[-76.63187,-2.58969],[-76.04499,-2.12804],[-75.58093,-1.54637],[-75.53896,-1.48347],[-75.4039,-1.00008],[-75.3867,-0.92974],[-75.32203,-0.97478],[-75.21624,-0.97083],[-75.22117,-0.86576],[-75.27247,-0.7354],[-75.23587,-0.64727],[-75.2276,-0.55143],[-75.27774,-0.49841],[-75.31276,-0.49424],[-75.38752,-0.43433],[-75.46273,-0.31843],[-75.48222,-0.23696],[-75.53077,-0.1809],[-75.61055,-0.19112],[-75.6105,-0.11336],[-75.56361,-0.1312],[-75.50563,-0.11794],[-75.40513,-0.17027],[-75.30624,-0.15542],[-75.25977,-0.12795],[-75.1836,-0.03861],[-75.07736,-0.0842],[-75.01689,-0.14569],[-74.9728,-0.15353],[-74.93208,-0.21779],[-74.84809,-0.23358],[-74.81391,-0.19225],[-74.76271,-0.22479],[-74.73039,-0.29292],[-74.73114,-0.33918],[-74.66864,-0.37375],[-74.57472,-0.39503],[-74.52955,-0.46513],[-74.42134,-0.50452],[-74.36644,-0.61045],[-74.37283,-0.65289],[-74.26815,-0.84701],[-74.2783,-0.89986],[-74.26722,-0.98236],[-74.2234,-1.00736],[-74.16836,-1.00633],[-74.09426,-1.04801],[-74.0462,-1.04482],[-74.01507,-1.08648],[-73.9478,-1.13211],[-73.91374,-1.12003],[-73.85713,-1.23178],[-73.68093,-1.23802],[-73.61995,-1.26131],[-73.61297,-1.31549],[-73.53164,-1.43501],[-73.52882,-1.46467],[-73.47857,-1.52209],[-73.50117,-1.61915],[-73.53696,-1.68836],[-73.49995,-1.7312],[-73.45928,-1.7364],[-73.42565,-1.7903],[-73.38334,-1.77471],[-73.30676,-1.78344],[-73.20379,-1.76392],[-73.15207,-1.85758],[-73.11277,-1.87281],[-73.11867,-2.0157],[-73.0944,-2.04223],[-73.13203,-2.18355],[-73.16876,-2.22463],[-73.119,-2.28454],[-73.0683,-2.31514],[-73.06641,-2.35524],[-72.96336,-2.34315],[-72.956,-2.39155],[-72.88909,-2.43332],[-72.8518,-2.43578],[-72.7691,-2.3868],[-72.69212,-2.40629],[-72.59552,-2.36655],[-72.51916,-2.42522],[-72.46645,-2.42123],[-72.37942,-2.45498],[-72.36811,-2.48953],[-72.2909,-2.46914],[-72.25822,-2.43225],[-72.20567,-2.44595],[-72.14776,-2.41563],[-72.04874,-2.33494],[-72.01011,-2.36895],[-71.96196,-2.35714],[-71.92606,-2.30778],[-71.88476,-2.31159],[-71.83277,-2.19042],[-71.79913,-2.20437],[-71.74059,-2.1422],[-71.7085,-2.22733],[-71.66403,-2.2023],[-71.60408,-2.23139],[-71.46335,-2.27109],[-71.37109,-2.38935],[-71.31674,-2.3744],[-71.30239,-2.34357],[-71.23108,-2.33761],[-71.18817,-2.37958],[-71.13358,-2.28513],[-71.05333,-2.27062],[-71.00021,-2.20785],[-70.92867,-2.25415],[-70.87939,-2.22089],[-70.83595,-2.29081],[-70.77776,-2.29299],[-70.75124,-2.32827],[-70.66592,-2.35377],[-70.62707,-2.39753],[-70.63829,-2.46577],[-70.5993,-2.48444],[-70.47506,-2.45507],[-70.43723,-2.52125],[-70.35791,-2.48932],[-70.33458,-2.57789],[-70.27384,-2.54733],[-70.23006,-2.57459],[-70.21933,-2.64359],[-70.10327,-2.65736],[-70.06604,-2.6841],[-70.06006,-2.75892],[-70.13998,-2.89082],[-70.50264,-3.46323],[-70.71115,-3.7903],[-70.61902,-3.84006],[-70.57368,-3.83029],[-70.49641,-3.87581],[-70.3463,-3.79976],[-70.27631,-3.83763],[-70.24609,-3.89037],[-70.198,-3.90961],[-70.17454,-3.96956],[-70.10503,-4.05747],[-70.05997,-4.08624],[-70.03408,-4.13441],[-69.95569,-4.20764],[-69.94959,-4.27938],[-69.97442,-4.33278],[-70.0186,-4.35325],[-70.07086,-4.32232],[-70.07937,-4.28541],[-70.15814,-4.27721],[-70.15383,-4.319],[-70.18084,-4.3554],[-70.24582,-4.28462],[-70.27853,-4.22893],[-70.29395,-4.15931],[-70.43282,-4.13129],[-70.46631,-4.17576],[-70.52604,-4.13608],[-70.55868,-4.1708],[-70.61624,-4.19348],[-70.64462,-4.12695],[-70.69432,-4.18667],[-70.74703,-4.16121],[-70.81661,-4.19711],[-70.82858,-4.24815],[-70.86463,-4.25615],[-70.87638,-4.32165],[-70.94829,-4.37602],[-71.07423,-4.3941],[-71.10579,-4.37631],[-71.18548,-4.39789],[-71.21299,-4.37664],[-71.26188,-4.42783],[-71.34095,-4.43937],[-71.38773,-4.4256],[-71.41881,-4.46471],[-71.47918,-4.43492],[-71.53592,-4.46258],[-71.56956,-4.50823],[-71.61591,-4.52814],[-71.64791,-4.50273],[-71.7068,-4.50989],[-71.7397,-4.48164],[-71.865,-4.52645],[-71.9186,-4.56191],[-71.98221,-4.62743],[-72.0374,-4.63666],[-72.10305,-4.70657],[-72.18593,-4.74279],[-72.26916,-4.79715],[-72.32589,-4.80156],[-72.37857,-4.83483],[-72.41493,-4.90032],[-72.52048,-4.93281],[-72.60536,-4.99918],[-72.60652,-5.02822],[-72.65455,-5.06284],[-72.72865,-5.05484],[-72.76107,-5.09311],[-72.88789,-5.16582],[-72.86403,-5.23459],[-72.86719,-5.29006],[-72.89569,-5.32497],[-72.92465,-5.40809],[-72.9579,-5.4644],[-72.94962,-5.54752],[-72.97373,-5.61344],[-72.95898,-5.65636],[-73.05735,-5.79649],[-73.15207,-5.86796],[-73.18546,-5.95008],[-73.18666,-6.00412],[-73.22234,-6.02206],[-73.24994,-6.13308],[-73.1566,-6.3268],[-73.1117,-6.44692],[-73.14886,-6.51376],[-73.19939,-6.56935],[-73.32935,-6.59778],[-73.39202,-6.64161],[-73.52083,-6.6761],[-73.56167,-6.72148],[-73.60329,-6.73198],[-73.71046,-6.84019],[-73.76131,-6.94012],[-73.76192,-7.06254],[-73.79842,-7.11306],[-73.71662,-7.22756],[-73.69488,-7.29907],[-73.72256,-7.34122],[-73.81866,-7.33822],[-73.86158,-7.38814],[-73.92373,-7.36221],[-73.94083,-7.39395],[-73.91132,-7.47584],[-73.94281,-7.5337],[-73.98303,-7.53436]]]}},{"type":"Feature","properties":{"NOMBDEP":"MADRE DE DIOS","COUNT":11,"FIRST_IDDP":"17","HECTARES":8504586.569},"geometry":{"type":"Polygon","coordinates":[[[-70.38847,-13.19239],[-70.46425,-13.15969],[-70.54985,-13.15286],[-70.58754,-13.10313],[-70.65976,-13.08846],[-70.75841,-13.10804],[-70.84296,-13.06705],[-70.92139,-13.11083],[-70.97452,-13.16829],[-71.04095,-13.26875],[-71.12201,-13.23353],[-71.16818,-13.09409],[-71.17304,-12.98333],[-71.23875,-12.97193],[-71.30101,-12.9407],[-71.35494,-12.88398],[-71.41524,-12.89426],[-71.45105,-12.82497],[-71.55213,-12.7093],[-71.6003,-12.70006],[-71.69497,-12.73879],[-71.74694,-12.79611],[-71.81059,-12.74498],[-71.88162,-12.73044],[-71.9786,-12.68333],[-71.95638,-12.65487],[-71.9814,-12.58049],[-72.03146,-12.52477],[-72.07113,-12.51148],[-72.06149,-12.44045],[-71.97601,-12.39878],[-71.97303,-12.32054],[-72.03384,-12.26504],[-72.10551,-12.23806],[-72.08756,-12.14269],[-72.09445,-12.08519],[-72.17373,-12.05981],[-72.26893,-12.05438],[-72.2593,-12.0063],[-72.28455,-11.97643],[-72.33747,-11.96808],[-72.34751,-11.89127],[-72.33215,-11.85553],[-72.3913,-11.82635],[-72.37077,-11.78497],[-72.42874,-11.70897],[-72.31551,-11.59558],[-72.29255,-11.43327],[-72.24789,-11.38501],[-72.23926,-11.34506],[-72.19818,-11.2617],[-72.20024,-11.2053],[-72.12141,-11.10714],[-72.18486,-11.06581],[-72.18209,-11.01024],[-72.13029,-10.99033],[-72.05174,-11.01091],[-72.01613,-10.98969],[-71.83567,-11.00047],[-71.72016,-10.99655],[-71.53161,-10.95223],[-71.35732,-10.95155],[-71.27338,-10.84736],[-71.25733,-10.78449],[-71.22119,-10.76138],[-71.22955,-10.68896],[-71.19621,-10.57986],[-71.12739,-10.50436],[-71.02453,-10.4782],[-70.96722,-10.38134],[-70.96588,-10.33981],[-70.92294,-10.32751],[-70.87919,-10.28425],[-70.81744,-10.25686],[-70.70511,-10.15868],[-70.70785,-10.13561],[-70.65053,-10.08034],[-70.67284,-10.03524],[-70.66763,-9.97245],[-70.61388,-9.91686],[-70.61365,-10.50026],[-70.61375,-11.00017],[-70.52783,-10.93428],[-70.45505,-10.9956],[-70.4243,-11.03835],[-70.30779,-11.0705],[-70.24458,-11.04939],[-70.19905,-11.05401],[-70.14123,-11.03006],[-70.09459,-10.98993],[-70.02802,-10.97763],[-69.95398,-10.92857],[-69.90053,-10.9206],[-69.78823,-10.92965],[-69.7393,-10.96504],[-69.63469,-10.95734],[-69.59686,-10.94174],[-69.56293,-10.96684],[-69.22833,-11.49982],[-69.10345,-11.68135],[-68.96827,-11.91631],[-68.65447,-12.49943],[-68.69221,-12.5836],[-68.73241,-12.61094],[-68.71888,-12.66184],[-68.74172,-12.72494],[-68.83469,-12.81316],[-68.83578,-12.85904],[-68.87157,-12.88547],[-68.87187,-13.00393],[-69.3106,-13.19578],[-69.64723,-13.34124],[-69.97416,-13.2451],[-70.03255,-13.22375],[-70.40287,-13.11441],[-70.38847,-13.19239]]]}},{"type":"Feature","properties":{"NOMBDEP":"MOQUEGUA","COUNT":20,"FIRST_IDDP":"18","HECTARES":1580730.977},"geometry":{"type":"Polygon","coordinates":[[[-71.13944,-17.82148],[-71.20565,-17.76865],[-71.37222,-17.68171],[-71.34108,-17.63699],[-71.35821,-17.58883],[-71.37257,-17.47539],[-71.39459,-17.38913],[-71.4908,-17.28501],[-71.44096,-17.25172],[-71.30225,-17.09385],[-71.33942,-17.02176],[-71.38461,-17.02111],[-71.44064,-16.86523],[-71.44431,-16.80467],[-71.4255,-16.74064],[-71.36943,-16.71968],[-71.32757,-16.75226],[-71.28909,-16.72646],[-71.27915,-16.61582],[-71.2448,-16.55023],[-71.24564,-16.46686],[-71.13952,-16.47497],[-71.07827,-16.45856],[-70.99245,-16.49587],[-70.95293,-16.46099],[-70.97524,-16.41216],[-70.98629,-16.30995],[-70.95702,-16.3084],[-70.85388,-16.24147],[-70.87506,-16.09458],[-70.85674,-16.05634],[-70.81257,-16.05396],[-70.8202,-15.97847],[-70.76864,-16.0168],[-70.7054,-16.03176],[-70.64332,-15.98974],[-70.56023,-15.9883],[-70.52608,-16.02672],[-70.40979,-16.07635],[-70.40194,-16.14903],[-70.3592,-16.20863],[-70.33876,-16.3228],[-70.38211,-16.38496],[-70.3334,-16.41145],[-70.30117,-16.47867],[-70.22867,-16.50608],[-70.1757,-16.56072],[-70.1687,-16.60962],[-70.08785,-16.65523],[-70.04697,-16.62796],[-70.00147,-16.65657],[-69.99556,-16.72978],[-70.05086,-16.76366],[-70.09109,-16.81212],[-70.09428,-16.89092],[-70.14662,-16.93873],[-70.24718,-16.95244],[-70.25907,-16.90203],[-70.20557,-16.80812],[-70.30761,-16.77305],[-70.44161,-16.84123],[-70.46472,-16.94568],[-70.44958,-17.08129],[-70.49186,-17.09137],[-70.5278,-17.16831],[-70.60998,-17.2145],[-70.68422,-17.22498],[-70.71592,-17.27365],[-70.7524,-17.38057],[-70.73558,-17.40123],[-70.87965,-17.55524],[-70.9125,-17.68737],[-70.993,-17.67912],[-71.10314,-17.75528],[-71.13944,-17.82148]]]}},{"type":"Feature","properties":{"NOMBDEP":"PASCO","COUNT":28,"FIRST_IDDP":"19","HECTARES":2411394.892},"geometry":{"type":"Polygon","coordinates":[[[-76.27886,-10.92345],[-76.24117,-11.06112],[-76.26294,-11.1496],[-76.3079,-11.13266],[-76.31807,-11.09164],[-76.39722,-11.07576],[-76.49121,-11.08944],[-76.5313,-11.03606],[-76.58016,-11.01084],[-76.56508,-10.96618],[-76.58058,-10.86691],[-76.63349,-10.78453],[-76.65938,-10.68825],[-76.65566,-10.64678],[-76.70179,-10.59354],[-76.72505,-10.48571],[-76.69682,-10.44249],[-76.6472,-10.41514],[-76.49094,-10.3789],[-76.4728,-10.33777],[-76.33579,-10.28632],[-76.30931,-10.40562],[-76.27112,-10.3711],[-76.22304,-10.37488],[-76.13049,-10.42973],[-76.07883,-10.43401],[-76.05764,-10.46515],[-75.97581,-10.47934],[-75.92515,-10.40676],[-75.92441,-10.35603],[-75.8564,-10.30171],[-75.84013,-10.25827],[-75.7856,-10.25237],[-75.70397,-10.20669],[-75.70311,-10.13304],[-75.6749,-10.04708],[-75.60859,-10.02287],[-75.59033,-9.95247],[-75.54864,-9.98361],[-75.47573,-9.97396],[-75.39565,-9.91396],[-75.36936,-9.87083],[-75.28794,-9.87028],[-75.27582,-9.84976],[-75.30307,-9.78362],[-75.24075,-9.78584],[-75.16012,-9.83997],[-75.1084,-9.84625],[-75.05988,-9.81969],[-74.99944,-9.83845],[-74.9431,-9.7611],[-74.89767,-9.73711],[-74.84935,-9.7483],[-74.80443,-9.72982],[-74.80704,-9.68658],[-74.73517,-9.57271],[-74.75052,-9.52461],[-74.7277,-9.46997],[-74.6771,-9.42832],[-74.58456,-9.49562],[-74.57556,-9.57049],[-74.49676,-9.59335],[-74.48555,-9.70222],[-74.44758,-9.77996],[-74.4502,-9.87023],[-74.41455,-9.90211],[-74.42403,-9.98944],[-74.40061,-10.07052],[-74.36697,-10.1129],[-74.32776,-10.10965],[-74.30394,-10.16359],[-74.23166,-10.18505],[-74.22434,-10.27923],[-74.27671,-10.37407],[-74.25518,-10.45248],[-74.21873,-10.45211],[-74.18179,-10.50404],[-74.13267,-10.60491],[-74.16496,-10.63845],[-74.22985,-10.6355],[-74.28113,-10.67486],[-74.31731,-10.72671],[-74.37427,-10.75811],[-74.38568,-10.81177],[-74.48492,-10.83646],[-74.51004,-10.88035],[-74.573,-10.9126],[-74.6141,-10.90463],[-74.6493,-10.86707],[-74.70795,-10.85813],[-74.76036,-10.82511],[-74.7918,-10.83113],[-74.83131,-10.7805],[-74.89331,-10.76913],[-74.95648,-10.73279],[-74.97926,-10.74689],[-75.01666,-10.67713],[-75.07432,-10.66581],[-75.1198,-10.73022],[-75.19102,-10.71571],[-75.24405,-10.76695],[-75.26236,-10.82529],[-75.3173,-10.86357],[-75.40638,-10.85613],[-75.46522,-10.90113],[-75.48076,-10.84978],[-75.45953,-10.78595],[-75.49025,-10.75683],[-75.57382,-10.74699],[-75.58967,-10.8109],[-75.69342,-10.8342],[-75.73237,-10.80919],[-75.78599,-10.82456],[-75.83838,-10.8863],[-75.85826,-10.86786],[-75.92275,-10.88315],[-75.99267,-10.82098],[-76.04448,-10.87952],[-76.09134,-10.90656],[-76.12293,-10.96264],[-76.1909,-10.96031],[-76.2098,-10.91897],[-76.22368,-10.91501],[-76.24908,-10.92455],[-76.25892,-10.92006],[-76.2658,-10.92017],[-76.27886,-10.92345]]]}},{"type":"Feature","properties":{"NOMBDEP":"PIURA","COUNT":64,"FIRST_IDDP":"20","HECTARES":3606506.675},"geometry":{"type":"Polygon","coordinates":[[[-79.21007,-4.96524],[-79.24509,-5.00136],[-79.29436,-5.11048],[-79.37841,-5.19052],[-79.34865,-5.23258],[-79.35905,-5.28863],[-79.32807,-5.31591],[-79.2977,-5.45813],[-79.2724,-5.51898],[-79.39832,-5.53702],[-79.37555,-5.60619],[-79.40069,-5.74951],[-79.38982,-5.79109],[-79.33407,-5.89363],[-79.41861,-5.9701],[-79.49894,-5.91519],[-79.60045,-5.93957],[-79.62642,-5.88745],[-79.63143,-5.82903],[-79.68271,-5.84645],[-79.73733,-5.83765],[-79.71728,-5.73935],[-79.78693,-5.64659],[-79.83294,-5.64549],[-79.86442,-5.56342],[-79.85399,-5.53182],[-79.90305,-5.49145],[-79.94587,-5.515],[-79.96904,-5.58221],[-79.99483,-5.75195],[-80.13086,-5.88867],[-80.19891,-5.893],[-80.32741,-5.94744],[-80.37622,-6.00697],[-80.62713,-6.37208],[-80.79792,-6.28898],[-80.91313,-6.19058],[-81.09157,-6.08203],[-81.14926,-5.98124],[-81.14929,-5.88923],[-81.09746,-5.83817],[-81.06845,-5.78575],[-81.0217,-5.83056],[-80.94314,-5.84568],[-80.89149,-5.80982],[-80.86124,-5.74967],[-80.85255,-5.63549],[-80.89758,-5.51145],[-80.95848,-5.42309],[-81.05298,-5.33099],[-81.10815,-5.31475],[-81.13812,-5.26362],[-81.19455,-5.21212],[-81.13316,-5.07028],[-81.09067,-5.08174],[-81.06022,-5.03928],[-81.08642,-4.96733],[-81.17662,-4.85536],[-81.3281,-4.68188],[-81.30965,-4.66182],[-81.28245,-4.52519],[-81.30361,-4.48325],[-81.26714,-4.43407],[-81.24928,-4.35482],[-81.26066,-4.31089],[-81.23705,-4.25068],[-81.16858,-4.21046],[-81.10062,-4.12894],[-81.04142,-4.08755],[-80.97132,-4.12712],[-80.95473,-4.17345],[-80.88282,-4.1928],[-80.80331,-4.17597],[-80.70032,-4.1878],[-80.62322,-4.23178],[-80.56083,-4.1747],[-80.52435,-4.10741],[-80.48733,-4.08313],[-80.44932,-4.12525],[-80.43427,-4.19594],[-80.37129,-4.19755],[-80.32883,-4.22313],[-80.36718,-4.28205],[-80.42672,-4.33658],[-80.45378,-4.38562],[-80.43879,-4.45644],[-80.38954,-4.48611],[-80.29002,-4.43464],[-80.19486,-4.34636],[-80.17871,-4.30378],[-80.10424,-4.29096],[-79.99177,-4.37996],[-79.9207,-4.38561],[-79.87135,-4.41298],[-79.83984,-4.4676],[-79.79388,-4.49298],[-79.70876,-4.47149],[-79.65546,-4.43416],[-79.62814,-4.43911],[-79.56339,-4.51427],[-79.49794,-4.52123],[-79.47939,-4.57285],[-79.48825,-4.62599],[-79.3925,-4.83164],[-79.3207,-4.88685],[-79.26304,-4.96866],[-79.21007,-4.96524]]]}},{"type":"Feature","properties":{"NOMBDEP":"PUNO","COUNT":109,"FIRST_IDDP":"21","HECTARES":6796281.696},"geometry":{"type":"MultiPolygon","coordinates":[[[[-68.91839,-16.40372],[-68.9184,-16.2333],[-68.81422,-16.31977],[-68.81422,-16.34799],[-68.91839,-16.40372]]],[[[-69.64132,-17.28745],[-69.6936,-17.27464],[-69.73167,-17.29497],[-69.78825,-17.23644],[-69.8514,-17.24374],[-70.03972,-17.12797],[-70.04677,-17.05638],[-70.09964,-17.00601],[-70.14662,-16.93873],[-70.09428,-16.89092],[-70.09109,-16.81212],[-70.05086,-16.76366],[-69.99556,-16.72978],[-70.00147,-16.65657],[-70.04697,-16.62796],[-70.08785,-16.65523],[-70.1687,-16.60962],[-70.1757,-16.56072],[-70.22867,-16.50608],[-70.30117,-16.47867],[-70.3334,-16.41145],[-70.38211,-16.38496],[-70.33876,-16.3228],[-70.3592,-16.20863],[-70.40194,-16.14903],[-70.40979,-16.07635],[-70.52608,-16.02672],[-70.56023,-15.9883],[-70.64332,-15.98974],[-70.7054,-16.03176],[-70.76864,-16.0168],[-70.8202,-15.97847],[-70.84328,-15.92326],[-70.93614,-15.78484],[-70.90013,-15.71215],[-70.91798,-15.6438],[-71.00818,-15.56397],[-71.01517,-15.48917],[-70.99396,-15.45484],[-71.03897,-15.40517],[-71.01228,-15.34375],[-70.9523,-15.28984],[-70.98528,-15.24903],[-70.9625,-15.21564],[-70.97623,-15.17564],[-71.00405,-14.97188],[-70.98474,-14.94607],[-70.99384,-14.82916],[-70.97548,-14.76413],[-71.01309,-14.73969],[-71.05324,-14.75433],[-71.11368,-14.66673],[-71.00145,-14.57221],[-70.99673,-14.50569],[-70.9625,-14.44482],[-70.98582,-14.40673],[-70.96258,-14.36185],[-70.91297,-14.32758],[-70.88058,-14.27088],[-70.89935,-14.2293],[-70.86683,-14.16908],[-70.80893,-14.1242],[-70.79588,-14.07212],[-70.86181,-14.02623],[-70.83304,-13.9381],[-70.83127,-13.85893],[-70.76837,-13.81433],[-70.72136,-13.82934],[-70.69886,-13.80317],[-70.73475,-13.73902],[-70.71513,-13.66225],[-70.65391,-13.65594],[-70.61619,-13.60906],[-70.54172,-13.57449],[-70.53403,-13.52527],[-70.45262,-13.44792],[-70.44255,-13.39336],[-70.40007,-13.37174],[-70.39284,-13.31416],[-70.42041,-13.25857],[-70.38847,-13.19239],[-70.40287,-13.11441],[-70.03255,-13.22375],[-69.97416,-13.2451],[-69.64723,-13.34124],[-69.3106,-13.19578],[-68.87187,-13.00393],[-68.85439,-13.06074],[-68.87452,-13.11568],[-68.84545,-13.24591],[-68.91725,-13.48653],[-68.99301,-13.64986],[-69.06103,-13.65696],[-69.06612,-13.68831],[-68.97708,-13.75815],[-68.98064,-13.78333],[-68.91774,-13.81366],[-68.95139,-13.87909],[-68.98213,-13.89406],[-68.9781,-13.97804],[-68.9374,-14.02543],[-68.89564,-14.04126],[-68.85618,-14.16267],[-68.8278,-14.21942],[-68.96241,-14.22005],[-69.01524,-14.31471],[-68.98541,-14.37466],[-69.03093,-14.42609],[-69.08395,-14.4518],[-69.1406,-14.51343],[-69.15003,-14.58031],[-69.22004,-14.58156],[-69.22967,-14.65669],[-69.25798,-14.68288],[-69.22526,-14.7407],[-69.3012,-14.7653],[-69.3538,-14.80167],[-69.34387,-14.88273],[-69.36158,-14.94919],[-69.29923,-15.0495],[-69.28522,-15.09497],[-69.23577,-15.12025],[-69.13153,-15.23399],[-69.21564,-15.31716],[-69.24856,-15.37081],[-69.25351,-15.46919],[-69.29007,-15.43688],[-69.33112,-15.53795],[-69.43496,-15.48236],[-69.4767,-15.42725],[-69.56896,-15.3545],[-69.59648,-15.36936],[-69.64198,-15.32015],[-69.64508,-15.28329],[-69.69921,-15.23364],[-69.72825,-15.23906],[-69.77274,-15.30893],[-69.8163,-15.2876],[-69.89429,-15.29511],[-69.90246,-15.35576],[-69.94289,-15.39668],[-69.92211,-15.45485],[-69.86071,-15.55705],[-69.77069,-15.65839],[-69.75077,-15.72908],[-69.79386,-15.7253],[-69.84552,-15.68501],[-69.84491,-15.64068],[-69.89292,-15.59343],[-69.96347,-15.69975],[-70.01742,-15.69079],[-70.0342,-15.72299],[-70.0241,-15.78688],[-69.96331,-15.85088],[-69.88304,-15.8902],[-69.82212,-15.78545],[-69.76747,-15.8318],[-69.76931,-15.89496],[-69.71386,-15.91683],[-69.67174,-15.9566],[-69.56266,-15.95946],[-69.45174,-15.99361],[-69.42316,-16.04704],[-69.50351,-16.1498],[-69.49432,-16.20806],[-69.42647,-16.17882],[-69.35805,-16.25014],[-69.24116,-16.27044],[-69.14535,-16.25315],[-69.05526,-16.19736],[-68.97685,-16.25708],[-69.05064,-16.2827],[-69.02196,-16.33191],[-69.02314,-16.40394],[-69.08401,-16.46265],[-69.08456,-16.49713],[-69.03692,-16.55971],[-69.0313,-16.60581],[-68.9961,-16.65658],[-69.04529,-16.68833],[-69.17001,-16.72754],[-69.21924,-16.83613],[-69.30467,-16.91584],[-69.34364,-16.98687],[-69.39463,-17.02387],[-69.37374,-17.07312],[-69.44913,-17.09775],[-69.51185,-17.14617],[-69.5569,-17.15928],[-69.64132,-17.28745]],[[-69.88774,-15.20693],[-69.93261,-15.15392],[-69.95685,-15.1725],[-70.02036,-15.15363],[-70.04495,-15.11066],[-70.11616,-15.16793],[-70.06054,-15.19405],[-69.95182,-15.21972],[-69.88774,-15.20693]]]]}},{"type":"Feature","properties":{"NOMBDEP":"SAN MARTIN","COUNT":77,"FIRST_IDDP":"22","HECTARES":5096125.898},"geometry":{"type":"Polygon","coordinates":[[[-75.98496,-8.32215],[-76.08718,-8.33691],[-76.13044,-8.46721],[-76.11593,-8.65757],[-76.16644,-8.75641],[-76.23015,-8.79629],[-76.26668,-8.65505],[-76.27846,-8.57746],[-76.32419,-8.52413],[-76.33347,-8.42947],[-76.4168,-8.44344],[-76.44395,-8.48879],[-76.46617,-8.56974],[-76.54269,-8.50971],[-76.62432,-8.51195],[-76.69727,-8.53241],[-76.83158,-8.51666],[-76.84727,-8.54648],[-76.9163,-8.57016],[-77.0498,-8.55372],[-77.09165,-8.51698],[-77.08888,-8.48282],[-77.13384,-8.44002],[-77.08548,-8.40622],[-76.97648,-8.39594],[-76.91375,-8.32609],[-76.90124,-8.28347],[-76.9256,-8.2185],[-76.907,-8.17074],[-76.98672,-8.11123],[-77.01956,-8.05269],[-77.11832,-8.02524],[-77.15054,-8.03204],[-77.23829,-8.01332],[-77.29226,-8.06009],[-77.38547,-8.05539],[-77.40713,-7.99199],[-77.37691,-7.90882],[-77.40678,-7.90249],[-77.44286,-7.81364],[-77.47983,-7.80329],[-77.52778,-7.75758],[-77.48453,-7.69971],[-77.5367,-7.58228],[-77.52692,-7.50484],[-77.61027,-7.43486],[-77.63571,-7.35745],[-77.62865,-7.32002],[-77.64675,-7.24074],[-77.60553,-7.21916],[-77.64353,-7.149],[-77.71338,-7.10789],[-77.75893,-6.96451],[-77.72332,-6.89346],[-77.76172,-6.80775],[-77.74671,-6.75184],[-77.74561,-6.66516],[-77.69336,-6.67853],[-77.61234,-6.61226],[-77.54407,-6.677],[-77.38173,-6.69759],[-77.43615,-6.60522],[-77.39387,-6.60269],[-77.33515,-6.52233],[-77.32636,-6.46803],[-77.27316,-6.40653],[-77.28666,-6.33102],[-77.26001,-6.32771],[-77.22146,-6.38113],[-77.17173,-6.38117],[-77.13273,-6.30242],[-77.2,-6.23118],[-77.22299,-6.1469],[-77.28153,-6.14172],[-77.34643,-6.11434],[-77.3955,-6.03938],[-77.43446,-6.06041],[-77.47862,-6.00089],[-77.53381,-6.06337],[-77.59346,-6.00935],[-77.66922,-5.98037],[-77.65189,-5.93533],[-77.67788,-5.85965],[-77.76393,-5.81971],[-77.77371,-5.68521],[-77.73689,-5.60514],[-77.76576,-5.53898],[-77.76845,-5.43805],[-77.74304,-5.40647],[-77.69596,-5.41105],[-77.67036,-5.40964],[-77.58167,-5.46118],[-77.55812,-5.42558],[-77.5174,-5.46675],[-77.46194,-5.58414],[-77.40873,-5.58916],[-77.37007,-5.56956],[-77.33832,-5.60347],[-77.23194,-5.59546],[-77.04173,-5.67471],[-76.99561,-5.66712],[-76.96135,-5.70608],[-76.88822,-5.74841],[-76.83545,-5.74556],[-76.81805,-5.86214],[-76.74673,-5.95403],[-76.7477,-6.00364],[-76.64001,-6.0026],[-76.54845,-6.02245],[-76.41227,-5.95066],[-76.37279,-5.97376],[-76.3183,-6.08609],[-76.27324,-6.10439],[-76.22363,-6.16603],[-76.12721,-6.17671],[-76.0321,-6.09966],[-75.96544,-6.0952],[-75.9308,-6.13665],[-75.83445,-6.1391],[-75.81483,-6.1009],[-75.71502,-6.13827],[-75.68037,-6.09563],[-75.62896,-6.08212],[-75.61389,-6.02324],[-75.57111,-6.00399],[-75.53279,-6.0956],[-75.52555,-6.16513],[-75.48719,-6.20342],[-75.49031,-6.26704],[-75.55009,-6.34771],[-75.5096,-6.49214],[-75.50023,-6.64032],[-75.50123,-6.76705],[-75.5118,-6.78557],[-75.63344,-6.84306],[-75.6681,-6.82642],[-75.6977,-6.8686],[-75.76843,-6.85382],[-75.84388,-6.79726],[-75.96365,-6.78842],[-76.05104,-6.81092],[-76.01053,-6.89361],[-76.05146,-6.9443],[-76.01079,-6.99654],[-76.01072,-7.07838],[-76.05994,-7.1613],[-76.14353,-7.20396],[-76.16666,-7.2676],[-76.21311,-7.31014],[-76.19604,-7.33353],[-76.21455,-7.40452],[-76.16615,-7.49431],[-76.09137,-7.56036],[-76.10159,-7.72266],[-76.0438,-7.79234],[-75.96698,-7.96036],[-75.85939,-7.92117],[-75.82949,-7.9735],[-75.84493,-8.05964],[-75.91701,-8.07178],[-75.94959,-8.09923],[-75.94116,-8.18618],[-75.91336,-8.25439],[-75.93489,-8.31155],[-75.98496,-8.32215]]]}},{"type":"Feature","properties":{"NOMBDEP":"TACNA","COUNT":27,"FIRST_IDDP":"23","HECTARES":1608306.709},"geometry":{"type":"Polygon","coordinates":[[[-69.64132,-17.28745],[-69.57522,-17.29259],[-69.46732,-17.37354],[-69.46829,-17.50417],[-69.66541,-17.6599],[-69.79599,-17.64624],[-69.8212,-17.68636],[-69.80005,-17.76233],[-69.79571,-17.86226],[-69.74718,-17.94394],[-69.7515,-17.98559],[-69.81308,-18.11448],[-69.85431,-18.16535],[-69.96055,-18.26288],[-70.05071,-18.2688],[-70.14965,-18.31837],[-70.2868,-18.30811],[-70.37671,-18.35093],[-70.48129,-18.27341],[-70.67857,-18.16185],[-70.81316,-18.04049],[-70.87919,-18.01475],[-70.89563,-17.96346],[-71.01101,-17.87675],[-71.09684,-17.86772],[-71.13944,-17.82148],[-71.10314,-17.75528],[-70.993,-17.67912],[-70.9125,-17.68737],[-70.87965,-17.55524],[-70.73558,-17.40123],[-70.7524,-17.38057],[-70.71592,-17.27365],[-70.68422,-17.22498],[-70.60998,-17.2145],[-70.5278,-17.16831],[-70.49186,-17.09137],[-70.44958,-17.08129],[-70.46472,-16.94568],[-70.44161,-16.84123],[-70.30761,-16.77305],[-70.20557,-16.80812],[-70.25907,-16.90203],[-70.24718,-16.95244],[-70.14662,-16.93873],[-70.09964,-17.00601],[-70.04677,-17.05638],[-70.03972,-17.12797],[-69.8514,-17.24374],[-69.78825,-17.23644],[-69.73167,-17.29497],[-69.6936,-17.27464],[-69.64132,-17.28745]]]}},{"type":"Feature","properties":{"NOMBDEP":"TUMBES","COUNT":13,"FIRST_IDDP":"24","HECTARES":469026.014},"geometry":{"type":"Polygon","coordinates":[[[-80.48733,-4.08313],[-80.52435,-4.10741],[-80.56083,-4.1747],[-80.62322,-4.23178],[-80.70032,-4.1878],[-80.80331,-4.17597],[-80.88282,-4.1928],[-80.95473,-4.17345],[-80.97132,-4.12712],[-81.04142,-4.08755],[-80.98739,-3.98571],[-80.95654,-3.9562],[-80.83365,-3.87576],[-80.79462,-3.7602],[-80.7536,-3.71817],[-80.58297,-3.63621],[-80.54485,-3.58973],[-80.50487,-3.50895],[-80.43356,-3.48985],[-80.38071,-3.49279],[-80.29236,-3.4088],[-80.22052,-3.44386],[-80.23973,-3.47779],[-80.20617,-3.53452],[-80.18877,-3.59793],[-80.18081,-3.73858],[-80.16043,-3.80239],[-80.15855,-3.86982],[-80.14024,-3.91296],[-80.24021,-3.95623],[-80.29808,-4.01726],[-80.36263,-3.98316],[-80.43024,-3.9895],[-80.48733,-4.08313]]]}},{"type":"Feature","properties":{"NOMBDEP":"UCAYALI","COUNT":15,"FIRST_IDDP":"25","HECTARES":10534176.378},"geometry":{"type":"Polygon","coordinates":[[[-70.61388,-9.91686],[-70.66763,-9.97245],[-70.67284,-10.03524],[-70.65053,-10.08034],[-70.70785,-10.13561],[-70.70511,-10.15868],[-70.81744,-10.25686],[-70.87919,-10.28425],[-70.92294,-10.32751],[-70.96588,-10.33981],[-70.96722,-10.38134],[-71.02453,-10.4782],[-71.12739,-10.50436],[-71.19621,-10.57986],[-71.22955,-10.68896],[-71.22119,-10.76138],[-71.25733,-10.78449],[-71.27338,-10.84736],[-71.35732,-10.95155],[-71.53161,-10.95223],[-71.72016,-10.99655],[-71.83567,-11.00047],[-72.01613,-10.98969],[-72.05174,-11.01091],[-72.13029,-10.99033],[-72.18209,-11.01024],[-72.18486,-11.06581],[-72.12141,-11.10714],[-72.20024,-11.2053],[-72.19818,-11.2617],[-72.23926,-11.34506],[-72.30771,-11.307],[-72.37883,-11.33264],[-72.47987,-11.38742],[-72.53509,-11.43508],[-72.60999,-11.42824],[-72.70656,-11.38151],[-72.73824,-11.34743],[-72.79429,-11.38429],[-72.89702,-11.35793],[-72.95191,-11.33063],[-72.93913,-11.28208],[-72.96858,-11.26412],[-72.98966,-11.1988],[-73.02651,-11.26408],[-73.13737,-11.29377],[-73.2033,-11.28999],[-73.25745,-11.31271],[-73.33133,-11.31126],[-73.41975,-11.38394],[-73.48409,-11.31934],[-73.46011,-11.30271],[-73.4501,-11.22475],[-73.4826,-11.06524],[-73.54258,-11.04742],[-73.57149,-10.95809],[-73.56026,-10.86061],[-73.6104,-10.84657],[-73.69619,-10.77303],[-73.7572,-10.7359],[-73.81422,-10.7999],[-73.82341,-10.92107],[-73.85411,-10.95491],[-73.86657,-11.03735],[-73.8613,-11.14553],[-73.97827,-11.12063],[-73.97874,-11.07003],[-74.0055,-10.99319],[-74.09178,-10.98681],[-74.20147,-11.01966],[-74.25644,-11.01822],[-74.37365,-11.05652],[-74.44541,-11.00485],[-74.50008,-10.996],[-74.50838,-10.9503],[-74.573,-10.9126],[-74.51004,-10.88035],[-74.48492,-10.83646],[-74.38568,-10.81177],[-74.37427,-10.75811],[-74.31731,-10.72671],[-74.28113,-10.67486],[-74.22985,-10.6355],[-74.16496,-10.63845],[-74.13267,-10.60491],[-74.18179,-10.50404],[-74.21873,-10.45211],[-74.25518,-10.45248],[-74.27671,-10.37407],[-74.22434,-10.27923],[-74.23166,-10.18505],[-74.30394,-10.16359],[-74.32776,-10.10965],[-74.36697,-10.1129],[-74.40061,-10.07052],[-74.42403,-9.98944],[-74.41455,-9.90211],[-74.4502,-9.87023],[-74.44758,-9.77996],[-74.48555,-9.70222],[-74.49676,-9.59335],[-74.57556,-9.57049],[-74.58456,-9.49562],[-74.6771,-9.42832],[-74.67431,-9.39447],[-74.58944,-9.30318],[-74.63956,-9.15968],[-74.64071,-9.11856],[-74.67809,-9.09404],[-74.65137,-9.04877],[-74.64431,-8.91878],[-74.60892,-8.82023],[-74.53218,-8.77613],[-74.52535,-8.74932],[-74.54713,-8.58457],[-74.61782,-8.54872],[-74.79753,-8.63171],[-74.84668,-8.66124],[-74.85056,-8.75689],[-74.94071,-8.85789],[-74.93416,-8.93022],[-74.97886,-8.95204],[-75.04556,-8.90422],[-75.09437,-8.9223],[-75.1433,-8.97219],[-75.15099,-9.03872],[-75.18102,-9.081],[-75.23758,-9.10677],[-75.2106,-9.15914],[-75.20971,-9.22994],[-75.26233,-9.27037],[-75.28272,-9.30983],[-75.32894,-9.29703],[-75.4521,-9.29672],[-75.49439,-9.37736],[-75.56245,-9.40017],[-75.67084,-9.39664],[-75.73176,-9.27227],[-75.79411,-9.18837],[-75.80646,-9.12149],[-75.87586,-9.02146],[-75.87435,-8.97025],[-75.9173,-8.87924],[-75.92165,-8.78081],[-75.94575,-8.71614],[-75.89185,-8.66157],[-75.83339,-8.65229],[-75.77964,-8.54742],[-75.77868,-8.49385],[-75.71647,-8.48733],[-75.70701,-8.43932],[-75.64813,-8.40975],[-75.59906,-8.41198],[-75.54662,-8.4665],[-75.44079,-8.43683],[-75.43532,-8.39311],[-75.50406,-8.34884],[-75.50288,-8.28941],[-75.47146,-8.25207],[-75.4301,-8.1666],[-75.37615,-8.13878],[-75.2878,-8.12551],[-75.24388,-8.15552],[-75.21457,-8.12714],[-75.18434,-8.0166],[-75.14249,-7.97864],[-75.03335,-7.95005],[-74.98226,-7.96899],[-74.89644,-8.08127],[-74.77126,-8.03606],[-74.72794,-7.98101],[-74.62798,-7.93983],[-74.56975,-7.81598],[-74.51572,-7.77717],[-74.55789,-7.74848],[-74.58403,-7.69849],[-74.57082,-7.66849],[-74.64314,-7.56229],[-74.6429,-7.50009],[-74.61607,-7.43504],[-74.57952,-7.40993],[-74.53573,-7.29443],[-74.50177,-7.26608],[-74.46265,-7.29894],[-74.31623,-7.35127],[-74.25902,-7.34405],[-74.18086,-7.35875],[-74.13839,-7.39635],[-74.03997,-7.44815],[-74.0338,-7.48486],[-73.98303,-7.53436],[-73.88946,-7.60318],[-73.90018,-7.63896],[-73.83727,-7.6706],[-73.80329,-7.71399],[-73.71403,-7.74296],[-73.67631,-7.80003],[-73.67816,-7.85796],[-73.76701,-7.91041],[-73.70618,-7.96176],[-73.6689,-8.01229],[-73.6403,-8.00651],[-73.58477,-8.12684],[-73.59547,-8.1658],[-73.56299,-8.2455],[-73.526,-8.27436],[-73.54291,-8.34759],[-73.37312,-8.47179],[-73.33098,-8.47586],[-73.34414,-8.60274],[-73.31967,-8.61062],[-73.25119,-8.69064],[-73.16724,-8.6983],[-73.11426,-8.78551],[-73.11201,-8.8193],[-73.0371,-8.91618],[-73.00127,-8.91691],[-72.94795,-9.02887],[-72.93999,-9.09325],[-72.96354,-9.14376],[-73.06409,-9.22769],[-73.1562,-9.35673],[-73.18876,-9.36322],[-73.20044,-9.4114],[-72.71691,-9.41219],[-72.5304,-9.48231],[-72.40706,-9.47729],[-72.28133,-9.5423],[-72.28832,-9.60282],[-72.24602,-9.65728],[-72.25899,-9.71219],[-72.21487,-9.77882],[-72.15136,-9.79742],[-72.16206,-9.83107],[-72.15071,-9.90574],[-72.17389,-9.93019],[-72.1804,-9.99967],[-71.73577,-9.99975],[-71.37504,-10.00014],[-71.34276,-9.96677],[-71.29744,-9.99218],[-71.19199,-9.94039],[-71.15765,-9.87215],[-71.05096,-9.81584],[-70.99838,-9.81821],[-70.97402,-9.76074],[-70.92451,-9.74164],[-70.86813,-9.66476],[-70.79918,-9.64192],[-70.74976,-9.56929],[-70.65777,-9.51426],[-70.56259,-9.43043],[-70.51372,-9.4928],[-70.53931,-9.53529],[-70.59185,-9.54855],[-70.59824,-9.60729],[-70.55117,-9.66981],[-70.52807,-9.72602],[-70.53663,-9.76584],[-70.61228,-9.8054],[-70.61388,-9.91686]]]}}]}