{
  "type": "FeatureCollection",
  "features": [
    {"type": "Feature", "properties": {"name": "Piura", "id": "PE-PI"}, "geometry": {"type": "Polygon", "coordinates": [[[-79.50, -3.20], [-80.50, -3.50], [-81.20, -4.50], [-81.30, -5.80], [-80.80, -6.20], [-79.50, -5.50], [-79.00, -4.50], [-79.50, -3.20]]]}},
    {"type": "Feature", "properties": {"name": "Tumbes", "id": "PE-TM"}, "geometry": {"type": "Polygon", "coordinates": [[[-80.50, -3.20], [-81.50, -3.00], [-81.30, -2.20], [-80.30, -2.50], [-80.50, -3.20]]]}},
    {"type": "Feature", "properties": {"name": "Lambayeque", "id": "PE-LB"}, "geometry": {"type": "Polygon", "coordinates": [[[-79.50, -5.80], [-80.50, -6.20], [-80.80, -7.50], [-79.80, -8.00], [-79.00, -7.50], [-79.50, -5.80]]]}},
    {"type": "Feature", "properties": {"name": "La Libertad", "id": "PE-LL"}, "geometry": {"type": "Polygon", "coordinates": [[[-79.80, -7.50], [-80.80, -7.50], [-80.90, -9.50], [-79.50, -9.80], [-78.50, -8.50], [-79.80, -7.50]]]}},
    {"type": "Feature", "properties": {"name": "Cajamarca", "id": "PE-CA"}, "geometry": {"type": "Polygon", "coordinates": [[[-78.50, -6.20], [-79.50, -5.50], [-79.80, -7.50], [-79.50, -9.80], [-77.50, -8.80], [-77.20, -7.50], [-78.50, -6.20]]]}},
    {"type": "Feature", "properties": {"name": "Amazonas", "id": "PE-AM"}, "geometry": {"type": "Polygon", "coordinates": [[[-77.20, -4.80], [-78.50, -4.50], [-78.80, -6.20], [-77.50, -6.80], [-76.50, -5.80], [-77.20, -4.80]]]}},
    {"type": "Feature", "properties": {"name": "San Martín", "id": "PE-SM"}, "geometry": {"type": "Polygon", "coordinates": [[[-76.50, -5.80], [-77.50, -6.80], [-77.80, -8.50], [-76.50, -9.20], [-75.50, -8.50], [-76.50, -5.80]]]}},
    {"type": "Feature", "properties": {"name": "Loreto", "id": "PE-LO"}, "geometry": {"type": "Polygon", "coordinates": [[[-71.00, -1.50], [-73.00, -0.50], [-76.50, -2.00], [-77.20, -4.80], [-75.00, -7.50], [-72.50, -7.80], [-71.30, -5.50], [-71.00, -2.50], [-71.00, -1.50]]]}},
    {"type": "Feature", "properties": {"name": "Ucayali", "id": "PE-UC"}, "geometry": {"type": "Polygon", "coordinates": [[[-72.00, -8.50], [-74.50, -8.30], [-74.80, -10.50], [-73.50, -11.20], [-71.50, -11.00], [-71.30, -9.50], [-72.00, -8.50]]]}},
    {"type": "Feature", "properties": {"name": "Huánuco", "id": "PE-HU"}, "geometry": {"type": "Polygon", "coordinates": [[[-75.50, -8.50], [-76.50, -9.20], [-77.00, -10.50], [-75.80, -11.50], [-74.50, -10.80], [-75.50, -8.50]]]}},
    {"type": "Feature", "properties": {"name": "Junín", "id": "PE-JU"}, "geometry": {"type": "Polygon", "coordinates": [[[-74.50, -10.80], [-75.80, -11.50], [-76.80, -13.00], [-75.50, -13.80], [-73.80, -13.00], [-74.50, -10.80]]]}},
    {"type": "Feature", "properties": {"name": "Pasco", "id": "PE-PA"}, "geometry": {"type": "Polygon", "coordinates": [[[-75.00, -9.50], [-75.50, -8.50], [-74.50, -10.80], [-74.50, -10.50], [-75.00, -9.50]]]}},
    {"type": "Feature", "properties": {"name": "Ica", "id": "PE-IC"}, "geometry": {"type": "Polygon", "coordinates": [[[-75.50, -13.80], [-76.20, -14.50], [-76.50, -15.50], [-75.50, -15.80], [-74.80, -14.80], [-75.50, -13.80]]]}},
    {"type": "Feature", "properties": {"name": "Huancavelica", "id": "PE-HV"}, "geometry": {"type": "Polygon", "coordinates": [[[-75.50, -13.80], [-76.80, -13.00], [-77.50, -14.50], [-76.50, -15.50], [-75.50, -13.80]]]}},
    {"type": "Feature", "properties": {"name": "Ayacucho", "id": "PE-AY"}, "geometry": {"type": "Polygon", "coordinates": [[[-76.50, -15.50], [-77.50, -14.50], [-78.00, -16.00], [-77.20, -17.00], [-76.00, -16.50], [-76.50, -15.50]]]}},
    {"type": "Feature", "properties": {"name": "Apurímac", "id": "PE-AP"}, "geometry": {"type": "Polygon", "coordinates": [[[-77.00, -10.50], [-77.80, -11.80], [-78.50, -13.50], [-76.80, -13.00], [-75.80, -11.50], [-77.00, -10.50]]]}},
    {"type": "Feature", "properties": {"name": "Cusco", "id": "PE-CU"}, "geometry": {"type": "Polygon", "coordinates": [[[-77.00, -13.00], [-78.50, -13.50], [-72.00, -16.00], [-71.50, -14.00], [-73.50, -13.50], [-77.00, -13.00]]]}},
    {"type": "Feature", "properties": {"name": "Madre de Dios", "id": "PE-MD"}, "geometry": {"type": "Polygon", "coordinates": [[[-71.50, -11.00], [-73.50, -11.20], [-72.00, -13.00], [-70.80, -13.80], [-70.50, -12.00], [-71.50, -11.00]]]}},
    {"type": "Feature", "properties": {"name": "Puno", "id": "PE-PU"}, "geometry": {"type": "Polygon", "coordinates": [[[-71.50, -14.00], [-72.00, -16.00], [-70.00, -17.50], [-69.50, -15.50], [-71.50, -14.00]]]}},
    {"type": "Feature", "properties": {"name": "Moquegua", "id": "PE-MO"}, "geometry": {"type": "Polygon", "coordinates": [[[-70.00, -17.50], [-70.50, -18.50], [-70.20, -19.50], [-69.50, -18.80], [-70.00, -17.50]]]}},
    {"type": "Feature", "properties": {"name": "Tacna", "id": "PE-TA"}, "geometry": {"type": "Polygon", "coordinates": [[[-70.50, -18.50], [-70.80, -19.50], [-70.20, -19.50], [-70.50, -18.50]]]}},
    {"type": "Feature", "properties": {"name": "Arequipa", "id": "PE-AR"}, "geometry": {"type": "Polygon", "coordinates": [[[-70.00, -17.50], [-72.00, -16.00], [-74.00, -16.80], [-73.50, -18.50], [-70.80, -19.50], [-70.50, -18.50], [-70.00, -17.50]]]}},
    {"type": "Feature", "properties": {"name": "Ancash", "id": "PE-AN"}, "geometry": {"type": "Polygon", "coordinates": [[[-78.50, -8.50], [-79.50, -9.80], [-80.00, -10.50], [-78.50, -11.00], [-77.50, -10.00], [-78.50, -8.50]]]}},
    {"type": "Feature", "properties": {"name": "Lima", "id": "PE-LI"}, "geometry": {"type": "Polygon", "coordinates": [[[-77.20, -11.80], [-77.80, -11.80], [-77.50, -13.80], [-76.50, -13.50], [-77.20, -11.80]]]}},
    {"type": "Feature", "properties": {"name": "Callao", "id": "PE-CL"}, "geometry": {"type": "Polygon", "coordinates": [[[-77.20, -11.80], [-77.30, -11.85], [-77.25, -12.10], [-77.10, -12.00], [-77.20, -11.80]]]}}
  ]
}
